[
  {
    "postcode": "01000",
    "state": "Perlis"
  },
  {
    "postcode": "01007",
    "state": "Perlis"
  },
  {
    "postcode": "01009",
    "state": "Perlis"
  },
  {
    "postcode": "01500",
    "state": "Perlis"
  },
  {
    "postcode": "01502",
    "state": "Perlis"
  },
  {
    "postcode": "01503",
    "state": "Perlis"
  },
  {
    "postcode": "01504",
    "state": "Perlis"
  },
  {
    "postcode": "01505",
    "state": "Perlis"
  },
  {
    "postcode": "01506",
    "state": "Perlis"
  },
  {
    "postcode": "01508",
    "state": "Perlis"
  },
  {
    "postcode": "01512",
    "state": "Perlis"
  },
  {
    "postcode": "01514",
    "state": "Perlis"
  },
  {
    "postcode": "01516",
    "state": "Perlis"
  },
  {
    "postcode": "01517",
    "state": "Perlis"
  },
  {
    "postcode": "01518",
    "state": "Perlis"
  },
  {
    "postcode": "01524",
    "state": "Perlis"
  },
  {
    "postcode": "01529",
    "state": "Perlis"
  },
  {
    "postcode": "01532",
    "state": "Perlis"
  },
  {
    "postcode": "01538",
    "state": "Perlis"
  },
  {
    "postcode": "01540",
    "state": "Perlis"
  },
  {
    "postcode": "01546",
    "state": "Perlis"
  },
  {
    "postcode": "01550",
    "state": "Perlis"
  },
  {
    "postcode": "01551",
    "state": "Perlis"
  },
  {
    "postcode": "01556",
    "state": "Perlis"
  },
  {
    "postcode": "01560",
    "state": "Perlis"
  },
  {
    "postcode": "01564",
    "state": "Perlis"
  },
  {
    "postcode": "01570",
    "state": "Perlis"
  },
  {
    "postcode": "01572",
    "state": "Perlis"
  },
  {
    "postcode": "01576",
    "state": "Perlis"
  },
  {
    "postcode": "01578",
    "state": "Perlis"
  },
  {
    "postcode": "01582",
    "state": "Perlis"
  },
  {
    "postcode": "01586",
    "state": "Perlis"
  },
  {
    "postcode": "01590",
    "state": "Perlis"
  },
  {
    "postcode": "01592",
    "state": "Perlis"
  },
  {
    "postcode": "01594",
    "state": "Perlis"
  },
  {
    "postcode": "01596",
    "state": "Perlis"
  },
  {
    "postcode": "01598",
    "state": "Perlis"
  },
  {
    "postcode": "01600",
    "state": "Perlis"
  },
  {
    "postcode": "01604",
    "state": "Perlis"
  },
  {
    "postcode": "01606",
    "state": "Perlis"
  },
  {
    "postcode": "01608",
    "state": "Perlis"
  },
  {
    "postcode": "01609",
    "state": "Perlis"
  },
  {
    "postcode": "01610",
    "state": "Perlis"
  },
  {
    "postcode": "01612",
    "state": "Perlis"
  },
  {
    "postcode": "01614",
    "state": "Perlis"
  },
  {
    "postcode": "01620",
    "state": "Perlis"
  },
  {
    "postcode": "01622",
    "state": "Perlis"
  },
  {
    "postcode": "01626",
    "state": "Perlis"
  },
  {
    "postcode": "01628",
    "state": "Perlis"
  },
  {
    "postcode": "01630",
    "state": "Perlis"
  },
  {
    "postcode": "01632",
    "state": "Perlis"
  },
  {
    "postcode": "01634",
    "state": "Perlis"
  },
  {
    "postcode": "01644",
    "state": "Perlis"
  },
  {
    "postcode": "01646",
    "state": "Perlis"
  },
  {
    "postcode": "01648",
    "state": "Perlis"
  },
  {
    "postcode": "01660",
    "state": "Perlis"
  },
  {
    "postcode": "01664",
    "state": "Perlis"
  },
  {
    "postcode": "01670",
    "state": "Perlis"
  },
  {
    "postcode": "01672",
    "state": "Perlis"
  },
  {
    "postcode": "01673",
    "state": "Perlis"
  },
  {
    "postcode": "01674",
    "state": "Perlis"
  },
  {
    "postcode": "01676",
    "state": "Perlis"
  },
  {
    "postcode": "01680",
    "state": "Perlis"
  },
  {
    "postcode": "01694",
    "state": "Perlis"
  },
  {
    "postcode": "02000",
    "state": "Perlis"
  },
  {
    "postcode": "02100",
    "state": "Perlis"
  },
  {
    "postcode": "02200",
    "state": "Perlis"
  },
  {
    "postcode": "02400",
    "state": "Perlis"
  },
  {
    "postcode": "02450",
    "state": "Perlis"
  },
  {
    "postcode": "02500",
    "state": "Perlis"
  },
  {
    "postcode": "02600",
    "state": "Perlis"
  },
  {
    "postcode": "02607",
    "state": "Perlis"
  },
  {
    "postcode": "02609",
    "state": "Perlis"
  },
  {
    "postcode": "02700",
    "state": "Perlis"
  },
  {
    "postcode": "02707",
    "state": "Perlis"
  },
  {
    "postcode": "02709",
    "state": "Perlis"
  },
  {
    "postcode": "02800",
    "state": "Perlis"
  },
  {
    "postcode": "05000",
    "state": "Kedah"
  },
  {
    "postcode": "05050",
    "state": "Kedah"
  },
  {
    "postcode": "05100",
    "state": "Kedah"
  },
  {
    "postcode": "05150",
    "state": "Kedah"
  },
  {
    "postcode": "05200",
    "state": "Kedah"
  },
  {
    "postcode": "05250",
    "state": "Kedah"
  },
  {
    "postcode": "05300",
    "state": "Kedah"
  },
  {
    "postcode": "05350",
    "state": "Kedah"
  },
  {
    "postcode": "05400",
    "state": "Kedah"
  },
  {
    "postcode": "05460",
    "state": "Kedah"
  },
  {
    "postcode": "05500",
    "state": "Kedah"
  },
  {
    "postcode": "05502",
    "state": "Kedah"
  },
  {
    "postcode": "05503",
    "state": "Kedah"
  },
  {
    "postcode": "05504",
    "state": "Kedah"
  },
  {
    "postcode": "05505",
    "state": "Kedah"
  },
  {
    "postcode": "05506",
    "state": "Kedah"
  },
  {
    "postcode": "05508",
    "state": "Kedah"
  },
  {
    "postcode": "05512",
    "state": "Kedah"
  },
  {
    "postcode": "05514",
    "state": "Kedah"
  },
  {
    "postcode": "05516",
    "state": "Kedah"
  },
  {
    "postcode": "05517",
    "state": "Kedah"
  },
  {
    "postcode": "05518",
    "state": "Kedah"
  },
  {
    "postcode": "05520",
    "state": "Kedah"
  },
  {
    "postcode": "05532",
    "state": "Kedah"
  },
  {
    "postcode": "05534",
    "state": "Kedah"
  },
  {
    "postcode": "05536",
    "state": "Kedah"
  },
  {
    "postcode": "05538",
    "state": "Kedah"
  },
  {
    "postcode": "05550",
    "state": "Kedah"
  },
  {
    "postcode": "05551",
    "state": "Kedah"
  },
  {
    "postcode": "05552",
    "state": "Kedah"
  },
  {
    "postcode": "05556",
    "state": "Kedah"
  },
  {
    "postcode": "05558",
    "state": "Kedah"
  },
  {
    "postcode": "05560",
    "state": "Kedah"
  },
  {
    "postcode": "05564",
    "state": "Kedah"
  },
  {
    "postcode": "05576",
    "state": "Kedah"
  },
  {
    "postcode": "05578",
    "state": "Kedah"
  },
  {
    "postcode": "05580",
    "state": "Kedah"
  },
  {
    "postcode": "05582",
    "state": "Kedah"
  },
  {
    "postcode": "05586",
    "state": "Kedah"
  },
  {
    "postcode": "05590",
    "state": "Kedah"
  },
  {
    "postcode": "05592",
    "state": "Kedah"
  },
  {
    "postcode": "05594",
    "state": "Kedah"
  },
  {
    "postcode": "05600",
    "state": "Kedah"
  },
  {
    "postcode": "05604",
    "state": "Kedah"
  },
  {
    "postcode": "05610",
    "state": "Kedah"
  },
  {
    "postcode": "05612",
    "state": "Kedah"
  },
  {
    "postcode": "05614",
    "state": "Kedah"
  },
  {
    "postcode": "05620",
    "state": "Kedah"
  },
  {
    "postcode": "05621",
    "state": "Kedah"
  },
  {
    "postcode": "05622",
    "state": "Kedah"
  },
  {
    "postcode": "05626",
    "state": "Kedah"
  },
  {
    "postcode": "05628",
    "state": "Kedah"
  },
  {
    "postcode": "05630",
    "state": "Kedah"
  },
  {
    "postcode": "05632",
    "state": "Kedah"
  },
  {
    "postcode": "05644",
    "state": "Kedah"
  },
  {
    "postcode": "05660",
    "state": "Kedah"
  },
  {
    "postcode": "05661",
    "state": "Kedah"
  },
  {
    "postcode": "05664",
    "state": "Kedah"
  },
  {
    "postcode": "05670",
    "state": "Kedah"
  },
  {
    "postcode": "05672",
    "state": "Kedah"
  },
  {
    "postcode": "05673",
    "state": "Kedah"
  },
  {
    "postcode": "05674",
    "state": "Kedah"
  },
  {
    "postcode": "05675",
    "state": "Kedah"
  },
  {
    "postcode": "05676",
    "state": "Kedah"
  },
  {
    "postcode": "05680",
    "state": "Kedah"
  },
  {
    "postcode": "05690",
    "state": "Kedah"
  },
  {
    "postcode": "05696",
    "state": "Kedah"
  },
  {
    "postcode": "05700",
    "state": "Kedah"
  },
  {
    "postcode": "05710",
    "state": "Kedah"
  },
  {
    "postcode": "05720",
    "state": "Kedah"
  },
  {
    "postcode": "05990",
    "state": "Kedah"
  },
  {
    "postcode": "06000",
    "state": "Kedah"
  },
  {
    "postcode": "06007",
    "state": "Kedah"
  },
  {
    "postcode": "06009",
    "state": "Kedah"
  },
  {
    "postcode": "06010",
    "state": "Kedah"
  },
  {
    "postcode": "06050",
    "state": "Kedah"
  },
  {
    "postcode": "06100",
    "state": "Kedah"
  },
  {
    "postcode": "06150",
    "state": "Kedah"
  },
  {
    "postcode": "06200",
    "state": "Kedah"
  },
  {
    "postcode": "06207",
    "state": "Kedah"
  },
  {
    "postcode": "06209",
    "state": "Kedah"
  },
  {
    "postcode": "06250",
    "state": "Kedah"
  },
  {
    "postcode": "06300",
    "state": "Kedah"
  },
  {
    "postcode": "06350",
    "state": "Kedah"
  },
  {
    "postcode": "06400",
    "state": "Kedah"
  },
  {
    "postcode": "06500",
    "state": "Kedah"
  },
  {
    "postcode": "06507",
    "state": "Kedah"
  },
  {
    "postcode": "06509",
    "state": "Kedah"
  },
  {
    "postcode": "06550",
    "state": "Kedah"
  },
  {
    "postcode": "06570",
    "state": "Kedah"
  },
  {
    "postcode": "06600",
    "state": "Kedah"
  },
  {
    "postcode": "06650",
    "state": "Kedah"
  },
  {
    "postcode": "06660",
    "state": "Kedah"
  },
  {
    "postcode": "06700",
    "state": "Kedah"
  },
  {
    "postcode": "06707",
    "state": "Kedah"
  },
  {
    "postcode": "06709",
    "state": "Kedah"
  },
  {
    "postcode": "06710",
    "state": "Kedah"
  },
  {
    "postcode": "06720",
    "state": "Kedah"
  },
  {
    "postcode": "06750",
    "state": "Kedah"
  },
  {
    "postcode": "06800",
    "state": "Kedah"
  },
  {
    "postcode": "06900",
    "state": "Kedah"
  },
  {
    "postcode": "06910",
    "state": "Kedah"
  },
  {
    "postcode": "07000",
    "state": "Kedah"
  },
  {
    "postcode": "07007",
    "state": "Kedah"
  },
  {
    "postcode": "07009",
    "state": "Kedah"
  },
  {
    "postcode": "08000",
    "state": "Kedah"
  },
  {
    "postcode": "08007",
    "state": "Kedah"
  },
  {
    "postcode": "08009",
    "state": "Kedah"
  },
  {
    "postcode": "08010",
    "state": "Kedah"
  },
  {
    "postcode": "08100",
    "state": "Kedah"
  },
  {
    "postcode": "08110",
    "state": "Kedah"
  },
  {
    "postcode": "08200",
    "state": "Kedah"
  },
  {
    "postcode": "08210",
    "state": "Kedah"
  },
  {
    "postcode": "08300",
    "state": "Kedah"
  },
  {
    "postcode": "08320",
    "state": "Kedah"
  },
  {
    "postcode": "08330",
    "state": "Kedah"
  },
  {
    "postcode": "08340",
    "state": "Kedah"
  },
  {
    "postcode": "08400",
    "state": "Kedah"
  },
  {
    "postcode": "08407",
    "state": "Kedah"
  },
  {
    "postcode": "08409",
    "state": "Kedah"
  },
  {
    "postcode": "08500",
    "state": "Kedah"
  },
  {
    "postcode": "08507",
    "state": "Kedah"
  },
  {
    "postcode": "08509",
    "state": "Kedah"
  },
  {
    "postcode": "08600",
    "state": "Kedah"
  },
  {
    "postcode": "08700",
    "state": "Kedah"
  },
  {
    "postcode": "08800",
    "state": "Kedah"
  },
  {
    "postcode": "09000",
    "state": "Kedah"
  },
  {
    "postcode": "09007",
    "state": "Kedah"
  },
  {
    "postcode": "09009",
    "state": "Kedah"
  },
  {
    "postcode": "09010",
    "state": "Kedah"
  },
  {
    "postcode": "09020",
    "state": "Kedah"
  },
  {
    "postcode": "09100",
    "state": "Kedah"
  },
  {
    "postcode": "09110",
    "state": "Kedah"
  },
  {
    "postcode": "09200",
    "state": "Kedah"
  },
  {
    "postcode": "09300",
    "state": "Kedah"
  },
  {
    "postcode": "09310",
    "state": "Kedah"
  },
  {
    "postcode": "09400",
    "state": "Kedah"
  },
  {
    "postcode": "09410",
    "state": "Kedah"
  },
  {
    "postcode": "09600",
    "state": "Kedah"
  },
  {
    "postcode": "09700",
    "state": "Kedah"
  },
  {
    "postcode": "09800",
    "state": "Kedah"
  },
  {
    "postcode": "09810",
    "state": "Kedah"
  },
  {
    "postcode": "10000",
    "state": "Pulau Pinang"
  },
  {
    "postcode": "10050",
    "state": "Pulau Pinang"
  },
  {
    "postcode": "10100",
    "state": "Pulau Pinang"
  },
  {
    "postcode": "10150",
    "state": "Pulau Pinang"
  },
  {
    "postcode": "10200",
    "state": "Pulau Pinang"
  },
  {
    "postcode": "10250",
    "state": "Pulau Pinang"
  },
  {
    "postcode": "10300",
    "state": "Pulau Pinang"
  },
  {
    "postcode": "10350",
    "state": "Pulau Pinang"
  },
  {
    "postcode": "10400",
    "state": "Pulau Pinang"
  },
  {
    "postcode": "10450",
    "state": "Pulau Pinang"
  },
  {
    "postcode": "10460",
    "state": "Pulau Pinang"
  },
  {
    "postcode": "10470",
    "state": "Pulau Pinang"
  },
  {
    "postcode": "10500",
    "state": "Pulau Pinang"
  },
  {
    "postcode": "10502",
    "state": "Pulau Pinang"
  },
  {
    "postcode": "10503",
    "state": "Pulau Pinang"
  },
  {
    "postcode": "10504",
    "state": "Pulau Pinang"
  },
  {
    "postcode": "10505",
    "state": "Pulau Pinang"
  },
  {
    "postcode": "10506",
    "state": "Pulau Pinang"
  },
  {
    "postcode": "10508",
    "state": "Pulau Pinang"
  },
  {
    "postcode": "10512",
    "state": "Pulau Pinang"
  },
  {
    "postcode": "10514",
    "state": "Pulau Pinang"
  },
  {
    "postcode": "10516",
    "state": "Pulau Pinang"
  },
  {
    "postcode": "10518",
    "state": "Pulau Pinang"
  },
  {
    "postcode": "10524",
    "state": "Pulau Pinang"
  },
  {
    "postcode": "10534",
    "state": "Pulau Pinang"
  },
  {
    "postcode": "10538",
    "state": "Pulau Pinang"
  },
  {
    "postcode": "10540",
    "state": "Pulau Pinang"
  },
  {
    "postcode": "10542",
    "state": "Pulau Pinang"
  },
  {
    "postcode": "10546",
    "state": "Pulau Pinang"
  },
  {
    "postcode": "10550",
    "state": "Pulau Pinang"
  },
  {
    "postcode": "10551",
    "state": "Pulau Pinang"
  },
  {
    "postcode": "10552",
    "state": "Pulau Pinang"
  },
  {
    "postcode": "10558",
    "state": "Pulau Pinang"
  },
  {
    "postcode": "10560",
    "state": "Pulau Pinang"
  },
  {
    "postcode": "10564",
    "state": "Pulau Pinang"
  },
  {
    "postcode": "10566",
    "state": "Pulau Pinang"
  },
  {
    "postcode": "10570",
    "state": "Pulau Pinang"
  },
  {
    "postcode": "10576",
    "state": "Pulau Pinang"
  },
  {
    "postcode": "10578",
    "state": "Pulau Pinang"
  },
  {
    "postcode": "10582",
    "state": "Pulau Pinang"
  },
  {
    "postcode": "10590",
    "state": "Pulau Pinang"
  },
  {
    "postcode": "10592",
    "state": "Pulau Pinang"
  },
  {
    "postcode": "10593",
    "state": "Pulau Pinang"
  },
  {
    "postcode": "10594",
    "state": "Pulau Pinang"
  },
  {
    "postcode": "10596",
    "state": "Pulau Pinang"
  },
  {
    "postcode": "10600",
    "state": "Pulau Pinang"
  },
  {
    "postcode": "10604",
    "state": "Pulau Pinang"
  },
  {
    "postcode": "10609",
    "state": "Pulau Pinang"
  },
  {
    "postcode": "10610",
    "state": "Pulau Pinang"
  },
  {
    "postcode": "10612",
    "state": "Pulau Pinang"
  },
  {
    "postcode": "10620",
    "state": "Pulau Pinang"
  },
  {
    "postcode": "10622",
    "state": "Pulau Pinang"
  },
  {
    "postcode": "10626",
    "state": "Pulau Pinang"
  },
  {
    "postcode": "10628",
    "state": "Pulau Pinang"
  },
  {
    "postcode": "10634",
    "state": "Pulau Pinang"
  },
  {
    "postcode": "10646",
    "state": "Pulau Pinang"
  },
  {
    "postcode": "10648",
    "state": "Pulau Pinang"
  },
  {
    "postcode": "10660",
    "state": "Pulau Pinang"
  },
  {
    "postcode": "10661",
    "state": "Pulau Pinang"
  },
  {
    "postcode": "10662",
    "state": "Pulau Pinang"
  },
  {
    "postcode": "10670",
    "state": "Pulau Pinang"
  },
  {
    "postcode": "10672",
    "state": "Pulau Pinang"
  },
  {
    "postcode": "10673",
    "state": "Pulau Pinang"
  },
  {
    "postcode": "10674",
    "state": "Pulau Pinang"
  },
  {
    "postcode": "10676",
    "state": "Pulau Pinang"
  },
  {
    "postcode": "10690",
    "state": "Pulau Pinang"
  },
  {
    "postcode": "10710",
    "state": "Pulau Pinang"
  },
  {
    "postcode": "10720",
    "state": "Pulau Pinang"
  },
  {
    "postcode": "10730",
    "state": "Pulau Pinang"
  },
  {
    "postcode": "10740",
    "state": "Pulau Pinang"
  },
  {
    "postcode": "10750",
    "state": "Pulau Pinang"
  },
  {
    "postcode": "10760",
    "state": "Pulau Pinang"
  },
  {
    "postcode": "10770",
    "state": "Pulau Pinang"
  },
  {
    "postcode": "10780",
    "state": "Pulau Pinang"
  },
  {
    "postcode": "10790",
    "state": "Pulau Pinang"
  },
  {
    "postcode": "10800",
    "state": "Pulau Pinang"
  },
  {
    "postcode": "10810",
    "state": "Pulau Pinang"
  },
  {
    "postcode": "10820",
    "state": "Pulau Pinang"
  },
  {
    "postcode": "10830",
    "state": "Pulau Pinang"
  },
  {
    "postcode": "10840",
    "state": "Pulau Pinang"
  },
  {
    "postcode": "10850",
    "state": "Pulau Pinang"
  },
  {
    "postcode": "10910",
    "state": "Pulau Pinang"
  },
  {
    "postcode": "10920",
    "state": "Pulau Pinang"
  },
  {
    "postcode": "10990",
    "state": "Pulau Pinang"
  },
  {
    "postcode": "11000",
    "state": "Pulau Pinang"
  },
  {
    "postcode": "11010",
    "state": "Pulau Pinang"
  },
  {
    "postcode": "11020",
    "state": "Pulau Pinang"
  },
  {
    "postcode": "11050",
    "state": "Pulau Pinang"
  },
  {
    "postcode": "11060",
    "state": "Pulau Pinang"
  },
  {
    "postcode": "11100",
    "state": "Pulau Pinang"
  },
  {
    "postcode": "11200",
    "state": "Pulau Pinang"
  },
  {
    "postcode": "11300",
    "state": "Pulau Pinang"
  },
  {
    "postcode": "11400",
    "state": "Pulau Pinang"
  },
  {
    "postcode": "11409",
    "state": "Pulau Pinang"
  },
  {
    "postcode": "11500",
    "state": "Pulau Pinang"
  },
  {
    "postcode": "11600",
    "state": "Pulau Pinang"
  },
  {
    "postcode": "11609",
    "state": "Pulau Pinang"
  },
  {
    "postcode": "11700",
    "state": "Pulau Pinang"
  },
  {
    "postcode": "11800",
    "state": "Pulau Pinang"
  },
  {
    "postcode": "11900",
    "state": "Pulau Pinang"
  },
  {
    "postcode": "11910",
    "state": "Pulau Pinang"
  },
  {
    "postcode": "11920",
    "state": "Pulau Pinang"
  },
  {
    "postcode": "11950",
    "state": "Pulau Pinang"
  },
  {
    "postcode": "11960",
    "state": "Pulau Pinang"
  },
  {
    "postcode": "12000",
    "state": "Pulau Pinang"
  },
  {
    "postcode": "12100",
    "state": "Pulau Pinang"
  },
  {
    "postcode": "12200",
    "state": "Pulau Pinang"
  },
  {
    "postcode": "12300",
    "state": "Pulau Pinang"
  },
  {
    "postcode": "12700",
    "state": "Pulau Pinang"
  },
  {
    "postcode": "12710",
    "state": "Pulau Pinang"
  },
  {
    "postcode": "12720",
    "state": "Pulau Pinang"
  },
  {
    "postcode": "12990",
    "state": "Pulau Pinang"
  },
  {
    "postcode": "13000",
    "state": "Pulau Pinang"
  },
  {
    "postcode": "13009",
    "state": "Pulau Pinang"
  },
  {
    "postcode": "13020",
    "state": "Pulau Pinang"
  },
  {
    "postcode": "13050",
    "state": "Pulau Pinang"
  },
  {
    "postcode": "13100",
    "state": "Pulau Pinang"
  },
  {
    "postcode": "13110",
    "state": "Pulau Pinang"
  },
  {
    "postcode": "13200",
    "state": "Pulau Pinang"
  },
  {
    "postcode": "13210",
    "state": "Pulau Pinang"
  },
  {
    "postcode": "13220",
    "state": "Pulau Pinang"
  },
  {
    "postcode": "13300",
    "state": "Pulau Pinang"
  },
  {
    "postcode": "13310",
    "state": "Pulau Pinang"
  },
  {
    "postcode": "13400",
    "state": "Pulau Pinang"
  },
  {
    "postcode": "13409",
    "state": "Pulau Pinang"
  },
  {
    "postcode": "13500",
    "state": "Pulau Pinang"
  },
  {
    "postcode": "13600",
    "state": "Pulau Pinang"
  },
  {
    "postcode": "13700",
    "state": "Pulau Pinang"
  },
  {
    "postcode": "13800",
    "state": "Pulau Pinang"
  },
  {
    "postcode": "14000",
    "state": "Pulau Pinang"
  },
  {
    "postcode": "14007",
    "state": "Pulau Pinang"
  },
  {
    "postcode": "14009",
    "state": "Pulau Pinang"
  },
  {
    "postcode": "14020",
    "state": "Pulau Pinang"
  },
  {
    "postcode": "14100",
    "state": "Pulau Pinang"
  },
  {
    "postcode": "14101",
    "state": "Pulau Pinang"
  },
  {
    "postcode": "14110",
    "state": "Pulau Pinang"
  },
  {
    "postcode": "14120",
    "state": "Pulau Pinang"
  },
  {
    "postcode": "14200",
    "state": "Pulau Pinang"
  },
  {
    "postcode": "14290",
    "state": "Kedah"
  },
  {
    "postcode": "14300",
    "state": "Pulau Pinang"
  },
  {
    "postcode": "14310",
    "state": "Pulau Pinang"
  },
  {
    "postcode": "14320",
    "state": "Pulau Pinang"
  },
  {
    "postcode": "14390",
    "state": "Kedah"
  },
  {
    "postcode": "14400",
    "state": "Pulau Pinang"
  },
  {
    "postcode": "15000",
    "state": "Kelantan"
  },
  {
    "postcode": "15050",
    "state": "Kelantan"
  },
  {
    "postcode": "15100",
    "state": "Kelantan"
  },
  {
    "postcode": "15150",
    "state": "Kelantan"
  },
  {
    "postcode": "15159",
    "state": "Kelantan"
  },
  {
    "postcode": "15200",
    "state": "Kelantan"
  },
  {
    "postcode": "15300",
    "state": "Kelantan"
  },
  {
    "postcode": "15350",
    "state": "Kelantan"
  },
  {
    "postcode": "15400",
    "state": "Kelantan"
  },
  {
    "postcode": "15500",
    "state": "Kelantan"
  },
  {
    "postcode": "15502",
    "state": "Kelantan"
  },
  {
    "postcode": "15503",
    "state": "Kelantan"
  },
  {
    "postcode": "15504",
    "state": "Kelantan"
  },
  {
    "postcode": "15505",
    "state": "Kelantan"
  },
  {
    "postcode": "15506",
    "state": "Kelantan"
  },
  {
    "postcode": "15508",
    "state": "Kelantan"
  },
  {
    "postcode": "15512",
    "state": "Kelantan"
  },
  {
    "postcode": "15514",
    "state": "Kelantan"
  },
  {
    "postcode": "15516",
    "state": "Kelantan"
  },
  {
    "postcode": "15517",
    "state": "Kelantan"
  },
  {
    "postcode": "15518",
    "state": "Kelantan"
  },
  {
    "postcode": "15519",
    "state": "Kelantan"
  },
  {
    "postcode": "15520",
    "state": "Kelantan"
  },
  {
    "postcode": "15524",
    "state": "Kelantan"
  },
  {
    "postcode": "15529",
    "state": "Kelantan"
  },
  {
    "postcode": "15532",
    "state": "Kelantan"
  },
  {
    "postcode": "15534",
    "state": "Kelantan"
  },
  {
    "postcode": "15536",
    "state": "Kelantan"
  },
  {
    "postcode": "15538",
    "state": "Kelantan"
  },
  {
    "postcode": "15540",
    "state": "Kelantan"
  },
  {
    "postcode": "15546",
    "state": "Kelantan"
  },
  {
    "postcode": "15548",
    "state": "Kelantan"
  },
  {
    "postcode": "15550",
    "state": "Kelantan"
  },
  {
    "postcode": "15551",
    "state": "Kelantan"
  },
  {
    "postcode": "15556",
    "state": "Kelantan"
  },
  {
    "postcode": "15558",
    "state": "Kelantan"
  },
  {
    "postcode": "15560",
    "state": "Kelantan"
  },
  {
    "postcode": "15564",
    "state": "Kelantan"
  },
  {
    "postcode": "15570",
    "state": "Kelantan"
  },
  {
    "postcode": "15572",
    "state": "Kelantan"
  },
  {
    "postcode": "15576",
    "state": "Kelantan"
  },
  {
    "postcode": "15578",
    "state": "Kelantan"
  },
  {
    "postcode": "15582",
    "state": "Kelantan"
  },
  {
    "postcode": "15586",
    "state": "Kelantan"
  },
  {
    "postcode": "15590",
    "state": "Kelantan"
  },
  {
    "postcode": "15592",
    "state": "Kelantan"
  },
  {
    "postcode": "15594",
    "state": "Kelantan"
  },
  {
    "postcode": "15596",
    "state": "Kelantan"
  },
  {
    "postcode": "15600",
    "state": "Kelantan"
  },
  {
    "postcode": "15604",
    "state": "Kelantan"
  },
  {
    "postcode": "15608",
    "state": "Kelantan"
  },
  {
    "postcode": "15609",
    "state": "Kelantan"
  },
  {
    "postcode": "15612",
    "state": "Kelantan"
  },
  {
    "postcode": "15614",
    "state": "Kelantan"
  },
  {
    "postcode": "15616",
    "state": "Kelantan"
  },
  {
    "postcode": "15622",
    "state": "Kelantan"
  },
  {
    "postcode": "15623",
    "state": "Kelantan"
  },
  {
    "postcode": "15626",
    "state": "Kelantan"
  },
  {
    "postcode": "15628",
    "state": "Kelantan"
  },
  {
    "postcode": "15630",
    "state": "Kelantan"
  },
  {
    "postcode": "15632",
    "state": "Kelantan"
  },
  {
    "postcode": "15634",
    "state": "Kelantan"
  },
  {
    "postcode": "15644",
    "state": "Kelantan"
  },
  {
    "postcode": "15646",
    "state": "Kelantan"
  },
  {
    "postcode": "15648",
    "state": "Kelantan"
  },
  {
    "postcode": "15658",
    "state": "Kelantan"
  },
  {
    "postcode": "15660",
    "state": "Kelantan"
  },
  {
    "postcode": "15661",
    "state": "Kelantan"
  },
  {
    "postcode": "15664",
    "state": "Kelantan"
  },
  {
    "postcode": "15670",
    "state": "Kelantan"
  },
  {
    "postcode": "15672",
    "state": "Kelantan"
  },
  {
    "postcode": "15673",
    "state": "Kelantan"
  },
  {
    "postcode": "15674",
    "state": "Kelantan"
  },
  {
    "postcode": "15676",
    "state": "Kelantan"
  },
  {
    "postcode": "15680",
    "state": "Kelantan"
  },
  {
    "postcode": "15690",
    "state": "Kelantan"
  },
  {
    "postcode": "15710",
    "state": "Kelantan"
  },
  {
    "postcode": "15720",
    "state": "Kelantan"
  },
  {
    "postcode": "15730",
    "state": "Kelantan"
  },
  {
    "postcode": "15740",
    "state": "Kelantan"
  },
  {
    "postcode": "15988",
    "state": "Kelantan"
  },
  {
    "postcode": "15990",
    "state": "Kelantan"
  },
  {
    "postcode": "16010",
    "state": "Kelantan"
  },
  {
    "postcode": "16020",
    "state": "Kelantan"
  },
  {
    "postcode": "16030",
    "state": "Kelantan"
  },
  {
    "postcode": "16040",
    "state": "Kelantan"
  },
  {
    "postcode": "16050",
    "state": "Kelantan"
  },
  {
    "postcode": "16060",
    "state": "Kelantan"
  },
  {
    "postcode": "16070",
    "state": "Kelantan"
  },
  {
    "postcode": "16080",
    "state": "Kelantan"
  },
  {
    "postcode": "16090",
    "state": "Kelantan"
  },
  {
    "postcode": "16100",
    "state": "Kelantan"
  },
  {
    "postcode": "16109",
    "state": "Kelantan"
  },
  {
    "postcode": "16150",
    "state": "Kelantan"
  },
  {
    "postcode": "16200",
    "state": "Kelantan"
  },
  {
    "postcode": "16210",
    "state": "Kelantan"
  },
  {
    "postcode": "16250",
    "state": "Kelantan"
  },
  {
    "postcode": "16300",
    "state": "Kelantan"
  },
  {
    "postcode": "16310",
    "state": "Kelantan"
  },
  {
    "postcode": "16320",
    "state": "Kelantan"
  },
  {
    "postcode": "16400",
    "state": "Kelantan"
  },
  {
    "postcode": "16450",
    "state": "Kelantan"
  },
  {
    "postcode": "16500",
    "state": "Kelantan"
  },
  {
    "postcode": "16600",
    "state": "Kelantan"
  },
  {
    "postcode": "16700",
    "state": "Kelantan"
  },
  {
    "postcode": "16800",
    "state": "Kelantan"
  },
  {
    "postcode": "16810",
    "state": "Kelantan"
  },
  {
    "postcode": "17000",
    "state": "Kelantan"
  },
  {
    "postcode": "17007",
    "state": "Kelantan"
  },
  {
    "postcode": "17009",
    "state": "Kelantan"
  },
  {
    "postcode": "17010",
    "state": "Kelantan"
  },
  {
    "postcode": "17020",
    "state": "Kelantan"
  },
  {
    "postcode": "17030",
    "state": "Kelantan"
  },
  {
    "postcode": "17040",
    "state": "Kelantan"
  },
  {
    "postcode": "17050",
    "state": "Kelantan"
  },
  {
    "postcode": "17060",
    "state": "Kelantan"
  },
  {
    "postcode": "17070",
    "state": "Kelantan"
  },
  {
    "postcode": "17200",
    "state": "Kelantan"
  },
  {
    "postcode": "17500",
    "state": "Kelantan"
  },
  {
    "postcode": "17507",
    "state": "Kelantan"
  },
  {
    "postcode": "17509",
    "state": "Kelantan"
  },
  {
    "postcode": "17510",
    "state": "Kelantan"
  },
  {
    "postcode": "17600",
    "state": "Kelantan"
  },
  {
    "postcode": "17610",
    "state": "Kelantan"
  },
  {
    "postcode": "17700",
    "state": "Kelantan"
  },
  {
    "postcode": "18000",
    "state": "Kelantan"
  },
  {
    "postcode": "18050",
    "state": "Kelantan"
  },
  {
    "postcode": "18200",
    "state": "Kelantan"
  },
  {
    "postcode": "18300",
    "state": "Kelantan"
  },
  {
    "postcode": "18400",
    "state": "Kelantan"
  },
  {
    "postcode": "18500",
    "state": "Kelantan"
  },
  {
    "postcode": "20000",
    "state": "Terengganu"
  },
  {
    "postcode": "20050",
    "state": "Terengganu"
  },
  {
    "postcode": "20100",
    "state": "Terengganu"
  },
  {
    "postcode": "20200",
    "state": "Terengganu"
  },
  {
    "postcode": "20300",
    "state": "Terengganu"
  },
  {
    "postcode": "20400",
    "state": "Terengganu"
  },
  {
    "postcode": "20500",
    "state": "Terengganu"
  },
  {
    "postcode": "20502",
    "state": "Terengganu"
  },
  {
    "postcode": "20503",
    "state": "Terengganu"
  },
  {
    "postcode": "20504",
    "state": "Terengganu"
  },
  {
    "postcode": "20505",
    "state": "Terengganu"
  },
  {
    "postcode": "20506",
    "state": "Terengganu"
  },
  {
    "postcode": "20508",
    "state": "Terengganu"
  },
  {
    "postcode": "20512",
    "state": "Terengganu"
  },
  {
    "postcode": "20514",
    "state": "Terengganu"
  },
  {
    "postcode": "20516",
    "state": "Terengganu"
  },
  {
    "postcode": "20517",
    "state": "Terengganu"
  },
  {
    "postcode": "20518",
    "state": "Terengganu"
  },
  {
    "postcode": "20519",
    "state": "Terengganu"
  },
  {
    "postcode": "20520",
    "state": "Terengganu"
  },
  {
    "postcode": "20532",
    "state": "Terengganu"
  },
  {
    "postcode": "20534",
    "state": "Terengganu"
  },
  {
    "postcode": "20536",
    "state": "Terengganu"
  },
  {
    "postcode": "20538",
    "state": "Terengganu"
  },
  {
    "postcode": "20540",
    "state": "Terengganu"
  },
  {
    "postcode": "20542",
    "state": "Terengganu"
  },
  {
    "postcode": "20546",
    "state": "Terengganu"
  },
  {
    "postcode": "20548",
    "state": "Terengganu"
  },
  {
    "postcode": "20550",
    "state": "Terengganu"
  },
  {
    "postcode": "20551",
    "state": "Terengganu"
  },
  {
    "postcode": "20552",
    "state": "Terengganu"
  },
  {
    "postcode": "20554",
    "state": "Terengganu"
  },
  {
    "postcode": "20556",
    "state": "Terengganu"
  },
  {
    "postcode": "20560",
    "state": "Terengganu"
  },
  {
    "postcode": "20564",
    "state": "Terengganu"
  },
  {
    "postcode": "20566",
    "state": "Terengganu"
  },
  {
    "postcode": "20568",
    "state": "Terengganu"
  },
  {
    "postcode": "20570",
    "state": "Terengganu"
  },
  {
    "postcode": "20572",
    "state": "Terengganu"
  },
  {
    "postcode": "20576",
    "state": "Terengganu"
  },
  {
    "postcode": "20578",
    "state": "Terengganu"
  },
  {
    "postcode": "20582",
    "state": "Terengganu"
  },
  {
    "postcode": "20586",
    "state": "Terengganu"
  },
  {
    "postcode": "20590",
    "state": "Terengganu"
  },
  {
    "postcode": "20592",
    "state": "Terengganu"
  },
  {
    "postcode": "20596",
    "state": "Terengganu"
  },
  {
    "postcode": "20600",
    "state": "Terengganu"
  },
  {
    "postcode": "20604",
    "state": "Terengganu"
  },
  {
    "postcode": "20606",
    "state": "Terengganu"
  },
  {
    "postcode": "20608",
    "state": "Terengganu"
  },
  {
    "postcode": "20609",
    "state": "Terengganu"
  },
  {
    "postcode": "20610",
    "state": "Terengganu"
  },
  {
    "postcode": "20612",
    "state": "Terengganu"
  },
  {
    "postcode": "20614",
    "state": "Terengganu"
  },
  {
    "postcode": "20618",
    "state": "Terengganu"
  },
  {
    "postcode": "20620",
    "state": "Terengganu"
  },
  {
    "postcode": "20622",
    "state": "Terengganu"
  },
  {
    "postcode": "20626",
    "state": "Terengganu"
  },
  {
    "postcode": "20628",
    "state": "Terengganu"
  },
  {
    "postcode": "20630",
    "state": "Terengganu"
  },
  {
    "postcode": "20632",
    "state": "Terengganu"
  },
  {
    "postcode": "20646",
    "state": "Terengganu"
  },
  {
    "postcode": "20648",
    "state": "Terengganu"
  },
  {
    "postcode": "20656",
    "state": "Terengganu"
  },
  {
    "postcode": "20658",
    "state": "Terengganu"
  },
  {
    "postcode": "20660",
    "state": "Terengganu"
  },
  {
    "postcode": "20661",
    "state": "Terengganu"
  },
  {
    "postcode": "20662",
    "state": "Terengganu"
  },
  {
    "postcode": "20664",
    "state": "Terengganu"
  },
  {
    "postcode": "20668",
    "state": "Terengganu"
  },
  {
    "postcode": "20670",
    "state": "Terengganu"
  },
  {
    "postcode": "20672",
    "state": "Terengganu"
  },
  {
    "postcode": "20673",
    "state": "Terengganu"
  },
  {
    "postcode": "20674",
    "state": "Terengganu"
  },
  {
    "postcode": "20676",
    "state": "Terengganu"
  },
  {
    "postcode": "20680",
    "state": "Terengganu"
  },
  {
    "postcode": "20690",
    "state": "Terengganu"
  },
  {
    "postcode": "20698",
    "state": "Terengganu"
  },
  {
    "postcode": "20700",
    "state": "Terengganu"
  },
  {
    "postcode": "20710",
    "state": "Terengganu"
  },
  {
    "postcode": "20720",
    "state": "Terengganu"
  },
  {
    "postcode": "20900",
    "state": "Terengganu"
  },
  {
    "postcode": "20902",
    "state": "Terengganu"
  },
  {
    "postcode": "20904",
    "state": "Terengganu"
  },
  {
    "postcode": "20906",
    "state": "Terengganu"
  },
  {
    "postcode": "20908",
    "state": "Terengganu"
  },
  {
    "postcode": "20910",
    "state": "Terengganu"
  },
  {
    "postcode": "20912",
    "state": "Terengganu"
  },
  {
    "postcode": "20914",
    "state": "Terengganu"
  },
  {
    "postcode": "20916",
    "state": "Terengganu"
  },
  {
    "postcode": "20918",
    "state": "Terengganu"
  },
  {
    "postcode": "20920",
    "state": "Terengganu"
  },
  {
    "postcode": "20922",
    "state": "Terengganu"
  },
  {
    "postcode": "20924",
    "state": "Terengganu"
  },
  {
    "postcode": "20926",
    "state": "Terengganu"
  },
  {
    "postcode": "20928",
    "state": "Terengganu"
  },
  {
    "postcode": "20930",
    "state": "Terengganu"
  },
  {
    "postcode": "20990",
    "state": "Terengganu"
  },
  {
    "postcode": "21000",
    "state": "Terengganu"
  },
  {
    "postcode": "21009",
    "state": "Terengganu"
  },
  {
    "postcode": "21010",
    "state": "Terengganu"
  },
  {
    "postcode": "21020",
    "state": "Terengganu"
  },
  {
    "postcode": "21030",
    "state": "Terengganu"
  },
  {
    "postcode": "21040",
    "state": "Terengganu"
  },
  {
    "postcode": "21060",
    "state": "Terengganu"
  },
  {
    "postcode": "21070",
    "state": "Terengganu"
  },
  {
    "postcode": "21080",
    "state": "Terengganu"
  },
  {
    "postcode": "21090",
    "state": "Terengganu"
  },
  {
    "postcode": "21100",
    "state": "Terengganu"
  },
  {
    "postcode": "21109",
    "state": "Terengganu"
  },
  {
    "postcode": "21200",
    "state": "Terengganu"
  },
  {
    "postcode": "21209",
    "state": "Terengganu"
  },
  {
    "postcode": "21210",
    "state": "Terengganu"
  },
  {
    "postcode": "21220",
    "state": "Terengganu"
  },
  {
    "postcode": "21300",
    "state": "Terengganu"
  },
  {
    "postcode": "21309",
    "state": "Terengganu"
  },
  {
    "postcode": "21400",
    "state": "Terengganu"
  },
  {
    "postcode": "21450",
    "state": "Terengganu"
  },
  {
    "postcode": "21500",
    "state": "Terengganu"
  },
  {
    "postcode": "21600",
    "state": "Terengganu"
  },
  {
    "postcode": "21610",
    "state": "Terengganu"
  },
  {
    "postcode": "21700",
    "state": "Terengganu"
  },
  {
    "postcode": "21800",
    "state": "Terengganu"
  },
  {
    "postcode": "21810",
    "state": "Terengganu"
  },
  {
    "postcode": "21820",
    "state": "Terengganu"
  },
  {
    "postcode": "22000",
    "state": "Terengganu"
  },
  {
    "postcode": "22010",
    "state": "Terengganu"
  },
  {
    "postcode": "22020",
    "state": "Terengganu"
  },
  {
    "postcode": "22100",
    "state": "Terengganu"
  },
  {
    "postcode": "22107",
    "state": "Terengganu"
  },
  {
    "postcode": "22109",
    "state": "Terengganu"
  },
  {
    "postcode": "22110",
    "state": "Terengganu"
  },
  {
    "postcode": "22120",
    "state": "Terengganu"
  },
  {
    "postcode": "22200",
    "state": "Terengganu"
  },
  {
    "postcode": "22300",
    "state": "Terengganu"
  },
  {
    "postcode": "22307",
    "state": "Terengganu"
  },
  {
    "postcode": "22309",
    "state": "Terengganu"
  },
  {
    "postcode": "23000",
    "state": "Terengganu"
  },
  {
    "postcode": "23007",
    "state": "Terengganu"
  },
  {
    "postcode": "23009",
    "state": "Terengganu"
  },
  {
    "postcode": "23050",
    "state": "Terengganu"
  },
  {
    "postcode": "23100",
    "state": "Terengganu"
  },
  {
    "postcode": "23200",
    "state": "Terengganu"
  },
  {
    "postcode": "23300",
    "state": "Terengganu"
  },
  {
    "postcode": "23400",
    "state": "Terengganu"
  },
  {
    "postcode": "24000",
    "state": "Terengganu"
  },
  {
    "postcode": "24007",
    "state": "Terengganu"
  },
  {
    "postcode": "24009",
    "state": "Terengganu"
  },
  {
    "postcode": "24050",
    "state": "Terengganu"
  },
  {
    "postcode": "24060",
    "state": "Terengganu"
  },
  {
    "postcode": "24100",
    "state": "Terengganu"
  },
  {
    "postcode": "24107",
    "state": "Terengganu"
  },
  {
    "postcode": "24109",
    "state": "Terengganu"
  },
  {
    "postcode": "24200",
    "state": "Terengganu"
  },
  {
    "postcode": "24207",
    "state": "Terengganu"
  },
  {
    "postcode": "24209",
    "state": "Terengganu"
  },
  {
    "postcode": "24300",
    "state": "Terengganu"
  },
  {
    "postcode": "25000",
    "state": "Pahang"
  },
  {
    "postcode": "25050",
    "state": "Pahang"
  },
  {
    "postcode": "25100",
    "state": "Pahang"
  },
  {
    "postcode": "25150",
    "state": "Pahang"
  },
  {
    "postcode": "25200",
    "state": "Pahang"
  },
  {
    "postcode": "25250",
    "state": "Pahang"
  },
  {
    "postcode": "25300",
    "state": "Pahang"
  },
  {
    "postcode": "25350",
    "state": "Pahang"
  },
  {
    "postcode": "25500",
    "state": "Pahang"
  },
  {
    "postcode": "25502",
    "state": "Pahang"
  },
  {
    "postcode": "25503",
    "state": "Pahang"
  },
  {
    "postcode": "25504",
    "state": "Pahang"
  },
  {
    "postcode": "25505",
    "state": "Pahang"
  },
  {
    "postcode": "25506",
    "state": "Pahang"
  },
  {
    "postcode": "25508",
    "state": "Pahang"
  },
  {
    "postcode": "25509",
    "state": "Pahang"
  },
  {
    "postcode": "25512",
    "state": "Pahang"
  },
  {
    "postcode": "25514",
    "state": "Pahang"
  },
  {
    "postcode": "25516",
    "state": "Pahang"
  },
  {
    "postcode": "25517",
    "state": "Pahang"
  },
  {
    "postcode": "25518",
    "state": "Pahang"
  },
  {
    "postcode": "25520",
    "state": "Pahang"
  },
  {
    "postcode": "25524",
    "state": "Pahang"
  },
  {
    "postcode": "25529",
    "state": "Pahang"
  },
  {
    "postcode": "25532",
    "state": "Pahang"
  },
  {
    "postcode": "25534",
    "state": "Pahang"
  },
  {
    "postcode": "25536",
    "state": "Pahang"
  },
  {
    "postcode": "25538",
    "state": "Pahang"
  },
  {
    "postcode": "25540",
    "state": "Pahang"
  },
  {
    "postcode": "25546",
    "state": "Pahang"
  },
  {
    "postcode": "25548",
    "state": "Pahang"
  },
  {
    "postcode": "25550",
    "state": "Pahang"
  },
  {
    "postcode": "25551",
    "state": "Pahang"
  },
  {
    "postcode": "25552",
    "state": "Pahang"
  },
  {
    "postcode": "25556",
    "state": "Pahang"
  },
  {
    "postcode": "25558",
    "state": "Pahang"
  },
  {
    "postcode": "25560",
    "state": "Pahang"
  },
  {
    "postcode": "25564",
    "state": "Pahang"
  },
  {
    "postcode": "25570",
    "state": "Pahang"
  },
  {
    "postcode": "25576",
    "state": "Pahang"
  },
  {
    "postcode": "25578",
    "state": "Pahang"
  },
  {
    "postcode": "25582",
    "state": "Pahang"
  },
  {
    "postcode": "25584",
    "state": "Pahang"
  },
  {
    "postcode": "25586",
    "state": "Pahang"
  },
  {
    "postcode": "25590",
    "state": "Pahang"
  },
  {
    "postcode": "25592",
    "state": "Pahang"
  },
  {
    "postcode": "25594",
    "state": "Pahang"
  },
  {
    "postcode": "25596",
    "state": "Pahang"
  },
  {
    "postcode": "25598",
    "state": "Pahang"
  },
  {
    "postcode": "25600",
    "state": "Pahang"
  },
  {
    "postcode": "25604",
    "state": "Pahang"
  },
  {
    "postcode": "25606",
    "state": "Pahang"
  },
  {
    "postcode": "25608",
    "state": "Pahang"
  },
  {
    "postcode": "25609",
    "state": "Pahang"
  },
  {
    "postcode": "25610",
    "state": "Pahang"
  },
  {
    "postcode": "25612",
    "state": "Pahang"
  },
  {
    "postcode": "25614",
    "state": "Pahang"
  },
  {
    "postcode": "25620",
    "state": "Pahang"
  },
  {
    "postcode": "25622",
    "state": "Pahang"
  },
  {
    "postcode": "25626",
    "state": "Pahang"
  },
  {
    "postcode": "25628",
    "state": "Pahang"
  },
  {
    "postcode": "25630",
    "state": "Pahang"
  },
  {
    "postcode": "25632",
    "state": "Pahang"
  },
  {
    "postcode": "25644",
    "state": "Pahang"
  },
  {
    "postcode": "25646",
    "state": "Pahang"
  },
  {
    "postcode": "25648",
    "state": "Pahang"
  },
  {
    "postcode": "25656",
    "state": "Pahang"
  },
  {
    "postcode": "25660",
    "state": "Pahang"
  },
  {
    "postcode": "25661",
    "state": "Pahang"
  },
  {
    "postcode": "25662",
    "state": "Pahang"
  },
  {
    "postcode": "25670",
    "state": "Pahang"
  },
  {
    "postcode": "25672",
    "state": "Pahang"
  },
  {
    "postcode": "25673",
    "state": "Pahang"
  },
  {
    "postcode": "25674",
    "state": "Pahang"
  },
  {
    "postcode": "25676",
    "state": "Pahang"
  },
  {
    "postcode": "25690",
    "state": "Pahang"
  },
  {
    "postcode": "25700",
    "state": "Pahang"
  },
  {
    "postcode": "25710",
    "state": "Pahang"
  },
  {
    "postcode": "25720",
    "state": "Pahang"
  },
  {
    "postcode": "25730",
    "state": "Pahang"
  },
  {
    "postcode": "25740",
    "state": "Pahang"
  },
  {
    "postcode": "25750",
    "state": "Pahang"
  },
  {
    "postcode": "25990",
    "state": "Pahang"
  },
  {
    "postcode": "26010",
    "state": "Pahang"
  },
  {
    "postcode": "26040",
    "state": "Pahang"
  },
  {
    "postcode": "26050",
    "state": "Pahang"
  },
  {
    "postcode": "26060",
    "state": "Pahang"
  },
  {
    "postcode": "26060",
    "state": "Selangor"
  },
  {
    "postcode": "26070",
    "state": "Pahang"
  },
  {
    "postcode": "26080",
    "state": "Pahang"
  },
  {
    "postcode": "26090",
    "state": "Pahang"
  },
  {
    "postcode": "26100",
    "state": "Pahang"
  },
  {
    "postcode": "26140",
    "state": "Pahang"
  },
  {
    "postcode": "26150",
    "state": "Pahang"
  },
  {
    "postcode": "26180",
    "state": "Pahang"
  },
  {
    "postcode": "26190",
    "state": "Pahang"
  },
  {
    "postcode": "26200",
    "state": "Pahang"
  },
  {
    "postcode": "26250",
    "state": "Pahang"
  },
  {
    "postcode": "26300",
    "state": "Pahang"
  },
  {
    "postcode": "26310",
    "state": "Pahang"
  },
  {
    "postcode": "26320",
    "state": "Pahang"
  },
  {
    "postcode": "26330",
    "state": "Pahang"
  },
  {
    "postcode": "26340",
    "state": "Pahang"
  },
  {
    "postcode": "26350",
    "state": "Pahang"
  },
  {
    "postcode": "26360",
    "state": "Pahang"
  },
  {
    "postcode": "26370",
    "state": "Pahang"
  },
  {
    "postcode": "26400",
    "state": "Pahang"
  },
  {
    "postcode": "26410",
    "state": "Pahang"
  },
  {
    "postcode": "26420",
    "state": "Pahang"
  },
  {
    "postcode": "26430",
    "state": "Pahang"
  },
  {
    "postcode": "26440",
    "state": "Pahang"
  },
  {
    "postcode": "26450",
    "state": "Pahang"
  },
  {
    "postcode": "26460",
    "state": "Pahang"
  },
  {
    "postcode": "26485",
    "state": "Pahang"
  },
  {
    "postcode": "26490",
    "state": "Pahang"
  },
  {
    "postcode": "26500",
    "state": "Pahang"
  },
  {
    "postcode": "26600",
    "state": "Pahang"
  },
  {
    "postcode": "26607",
    "state": "Pahang"
  },
  {
    "postcode": "26609",
    "state": "Pahang"
  },
  {
    "postcode": "26610",
    "state": "Pahang"
  },
  {
    "postcode": "26620",
    "state": "Pahang"
  },
  {
    "postcode": "26630",
    "state": "Pahang"
  },
  {
    "postcode": "26640",
    "state": "Pahang"
  },
  {
    "postcode": "26650",
    "state": "Pahang"
  },
  {
    "postcode": "26660",
    "state": "Pahang"
  },
  {
    "postcode": "26680",
    "state": "Pahang"
  },
  {
    "postcode": "26690",
    "state": "Pahang"
  },
  {
    "postcode": "26700",
    "state": "Pahang"
  },
  {
    "postcode": "26800",
    "state": "Pahang"
  },
  {
    "postcode": "26810",
    "state": "Pahang"
  },
  {
    "postcode": "26820",
    "state": "Pahang"
  },
  {
    "postcode": "26900",
    "state": "Pahang"
  },
  {
    "postcode": "27000",
    "state": "Pahang"
  },
  {
    "postcode": "27000",
    "state": "Selangor"
  },
  {
    "postcode": "27010",
    "state": "Pahang"
  },
  {
    "postcode": "27020",
    "state": "Pahang"
  },
  {
    "postcode": "27030",
    "state": "Pahang"
  },
  {
    "postcode": "27040",
    "state": "Pahang"
  },
  {
    "postcode": "27050",
    "state": "Pahang"
  },
  {
    "postcode": "27060",
    "state": "Pahang"
  },
  {
    "postcode": "27070",
    "state": "Pahang"
  },
  {
    "postcode": "27090",
    "state": "Pahang"
  },
  {
    "postcode": "27100",
    "state": "Pahang"
  },
  {
    "postcode": "27150",
    "state": "Pahang"
  },
  {
    "postcode": "27200",
    "state": "Pahang"
  },
  {
    "postcode": "27207",
    "state": "Pahang"
  },
  {
    "postcode": "27209",
    "state": "Pahang"
  },
  {
    "postcode": "27210",
    "state": "Pahang"
  },
  {
    "postcode": "27300",
    "state": "Pahang"
  },
  {
    "postcode": "27310",
    "state": "Pahang"
  },
  {
    "postcode": "27400",
    "state": "Pahang"
  },
  {
    "postcode": "27600",
    "state": "Pahang"
  },
  {
    "postcode": "27607",
    "state": "Pahang"
  },
  {
    "postcode": "27609",
    "state": "Pahang"
  },
  {
    "postcode": "27610",
    "state": "Pahang"
  },
  {
    "postcode": "27620",
    "state": "Pahang"
  },
  {
    "postcode": "27630",
    "state": "Pahang"
  },
  {
    "postcode": "27650",
    "state": "Pahang"
  },
  {
    "postcode": "27660",
    "state": "Pahang"
  },
  {
    "postcode": "27670",
    "state": "Pahang"
  },
  {
    "postcode": "28000",
    "state": "Pahang"
  },
  {
    "postcode": "28007",
    "state": "Pahang"
  },
  {
    "postcode": "28009",
    "state": "Pahang"
  },
  {
    "postcode": "28010",
    "state": "Pahang"
  },
  {
    "postcode": "28020",
    "state": "Pahang"
  },
  {
    "postcode": "28030",
    "state": "Pahang"
  },
  {
    "postcode": "28040",
    "state": "Pahang"
  },
  {
    "postcode": "28050",
    "state": "Pahang"
  },
  {
    "postcode": "28100",
    "state": "Pahang"
  },
  {
    "postcode": "28200",
    "state": "Pahang"
  },
  {
    "postcode": "28300",
    "state": "Pahang"
  },
  {
    "postcode": "28310",
    "state": "Pahang"
  },
  {
    "postcode": "28320",
    "state": "Pahang"
  },
  {
    "postcode": "28330",
    "state": "Pahang"
  },
  {
    "postcode": "28340",
    "state": "Pahang"
  },
  {
    "postcode": "28380",
    "state": "Pahang"
  },
  {
    "postcode": "28400",
    "state": "Pahang"
  },
  {
    "postcode": "28407",
    "state": "Pahang"
  },
  {
    "postcode": "28409",
    "state": "Pahang"
  },
  {
    "postcode": "28500",
    "state": "Pahang"
  },
  {
    "postcode": "28600",
    "state": "Pahang"
  },
  {
    "postcode": "28610",
    "state": "Pahang"
  },
  {
    "postcode": "28620",
    "state": "Pahang"
  },
  {
    "postcode": "28700",
    "state": "Pahang"
  },
  {
    "postcode": "28707",
    "state": "Pahang"
  },
  {
    "postcode": "28709",
    "state": "Pahang"
  },
  {
    "postcode": "28730",
    "state": "Pahang"
  },
  {
    "postcode": "28740",
    "state": "Pahang"
  },
  {
    "postcode": "28750",
    "state": "Pahang"
  },
  {
    "postcode": "28800",
    "state": "Pahang"
  },
  {
    "postcode": "30000",
    "state": "Perak"
  },
  {
    "postcode": "30010",
    "state": "Perak"
  },
  {
    "postcode": "30020",
    "state": "Perak"
  },
  {
    "postcode": "30100",
    "state": "Perak"
  },
  {
    "postcode": "30200",
    "state": "Perak"
  },
  {
    "postcode": "30250",
    "state": "Perak"
  },
  {
    "postcode": "30300",
    "state": "Perak"
  },
  {
    "postcode": "30350",
    "state": "Perak"
  },
  {
    "postcode": "30450",
    "state": "Perak"
  },
  {
    "postcode": "30500",
    "state": "Perak"
  },
  {
    "postcode": "30502",
    "state": "Perak"
  },
  {
    "postcode": "30503",
    "state": "Perak"
  },
  {
    "postcode": "30504",
    "state": "Perak"
  },
  {
    "postcode": "30505",
    "state": "Perak"
  },
  {
    "postcode": "30506",
    "state": "Perak"
  },
  {
    "postcode": "30508",
    "state": "Perak"
  },
  {
    "postcode": "30510",
    "state": "Perak"
  },
  {
    "postcode": "30512",
    "state": "Perak"
  },
  {
    "postcode": "30516",
    "state": "Perak"
  },
  {
    "postcode": "30517",
    "state": "Perak"
  },
  {
    "postcode": "30518",
    "state": "Perak"
  },
  {
    "postcode": "30519",
    "state": "Perak"
  },
  {
    "postcode": "30520",
    "state": "Perak"
  },
  {
    "postcode": "30524",
    "state": "Perak"
  },
  {
    "postcode": "30532",
    "state": "Perak"
  },
  {
    "postcode": "30534",
    "state": "Perak"
  },
  {
    "postcode": "30536",
    "state": "Perak"
  },
  {
    "postcode": "30540",
    "state": "Perak"
  },
  {
    "postcode": "30542",
    "state": "Perak"
  },
  {
    "postcode": "30546",
    "state": "Perak"
  },
  {
    "postcode": "30548",
    "state": "Perak"
  },
  {
    "postcode": "30550",
    "state": "Perak"
  },
  {
    "postcode": "30551",
    "state": "Perak"
  },
  {
    "postcode": "30552",
    "state": "Perak"
  },
  {
    "postcode": "30554",
    "state": "Perak"
  },
  {
    "postcode": "30556",
    "state": "Perak"
  },
  {
    "postcode": "30560",
    "state": "Perak"
  },
  {
    "postcode": "30564",
    "state": "Perak"
  },
  {
    "postcode": "30570",
    "state": "Perak"
  },
  {
    "postcode": "30576",
    "state": "Perak"
  },
  {
    "postcode": "30580",
    "state": "Perak"
  },
  {
    "postcode": "30582",
    "state": "Perak"
  },
  {
    "postcode": "30586",
    "state": "Perak"
  },
  {
    "postcode": "30590",
    "state": "Perak"
  },
  {
    "postcode": "30592",
    "state": "Perak"
  },
  {
    "postcode": "30594",
    "state": "Perak"
  },
  {
    "postcode": "30596",
    "state": "Perak"
  },
  {
    "postcode": "30600",
    "state": "Perak"
  },
  {
    "postcode": "30604",
    "state": "Perak"
  },
  {
    "postcode": "30606",
    "state": "Perak"
  },
  {
    "postcode": "30609",
    "state": "Perak"
  },
  {
    "postcode": "30610",
    "state": "Perak"
  },
  {
    "postcode": "30612",
    "state": "Perak"
  },
  {
    "postcode": "30614",
    "state": "Perak"
  },
  {
    "postcode": "30620",
    "state": "Perak"
  },
  {
    "postcode": "30621",
    "state": "Perak"
  },
  {
    "postcode": "30622",
    "state": "Perak"
  },
  {
    "postcode": "30626",
    "state": "Perak"
  },
  {
    "postcode": "30628",
    "state": "Perak"
  },
  {
    "postcode": "30630",
    "state": "Perak"
  },
  {
    "postcode": "30632",
    "state": "Perak"
  },
  {
    "postcode": "30634",
    "state": "Perak"
  },
  {
    "postcode": "30644",
    "state": "Perak"
  },
  {
    "postcode": "30646",
    "state": "Perak"
  },
  {
    "postcode": "30648",
    "state": "Perak"
  },
  {
    "postcode": "30656",
    "state": "Perak"
  },
  {
    "postcode": "30658",
    "state": "Perak"
  },
  {
    "postcode": "30660",
    "state": "Perak"
  },
  {
    "postcode": "30661",
    "state": "Perak"
  },
  {
    "postcode": "30662",
    "state": "Perak"
  },
  {
    "postcode": "30664",
    "state": "Perak"
  },
  {
    "postcode": "30668",
    "state": "Perak"
  },
  {
    "postcode": "30670",
    "state": "Perak"
  },
  {
    "postcode": "30673",
    "state": "Perak"
  },
  {
    "postcode": "30674",
    "state": "Perak"
  },
  {
    "postcode": "30676",
    "state": "Perak"
  },
  {
    "postcode": "30682",
    "state": "Perak"
  },
  {
    "postcode": "30690",
    "state": "Perak"
  },
  {
    "postcode": "30700",
    "state": "Perak"
  },
  {
    "postcode": "30710",
    "state": "Perak"
  },
  {
    "postcode": "30720",
    "state": "Perak"
  },
  {
    "postcode": "30730",
    "state": "Perak"
  },
  {
    "postcode": "30740",
    "state": "Perak"
  },
  {
    "postcode": "30750",
    "state": "Perak"
  },
  {
    "postcode": "30760",
    "state": "Perak"
  },
  {
    "postcode": "30770",
    "state": "Perak"
  },
  {
    "postcode": "30780",
    "state": "Perak"
  },
  {
    "postcode": "30790",
    "state": "Perak"
  },
  {
    "postcode": "30800",
    "state": "Perak"
  },
  {
    "postcode": "30810",
    "state": "Perak"
  },
  {
    "postcode": "30820",
    "state": "Perak"
  },
  {
    "postcode": "30830",
    "state": "Perak"
  },
  {
    "postcode": "30840",
    "state": "Perak"
  },
  {
    "postcode": "30900",
    "state": "Perak"
  },
  {
    "postcode": "30902",
    "state": "Perak"
  },
  {
    "postcode": "30904",
    "state": "Perak"
  },
  {
    "postcode": "30906",
    "state": "Perak"
  },
  {
    "postcode": "30908",
    "state": "Perak"
  },
  {
    "postcode": "30910",
    "state": "Perak"
  },
  {
    "postcode": "30912",
    "state": "Perak"
  },
  {
    "postcode": "30988",
    "state": "Perak"
  },
  {
    "postcode": "30990",
    "state": "Perak"
  },
  {
    "postcode": "31000",
    "state": "Perak"
  },
  {
    "postcode": "31007",
    "state": "Perak"
  },
  {
    "postcode": "31009",
    "state": "Perak"
  },
  {
    "postcode": "31050",
    "state": "Perak"
  },
  {
    "postcode": "31100",
    "state": "Perak"
  },
  {
    "postcode": "31150",
    "state": "Perak"
  },
  {
    "postcode": "31200",
    "state": "Perak"
  },
  {
    "postcode": "31250",
    "state": "Perak"
  },
  {
    "postcode": "31300",
    "state": "Perak"
  },
  {
    "postcode": "31350",
    "state": "Perak"
  },
  {
    "postcode": "31400",
    "state": "Perak"
  },
  {
    "postcode": "31407",
    "state": "Perak"
  },
  {
    "postcode": "31409",
    "state": "Perak"
  },
  {
    "postcode": "31450",
    "state": "Perak"
  },
  {
    "postcode": "31500",
    "state": "Perak"
  },
  {
    "postcode": "31550",
    "state": "Perak"
  },
  {
    "postcode": "31560",
    "state": "Perak"
  },
  {
    "postcode": "31600",
    "state": "Perak"
  },
  {
    "postcode": "31610",
    "state": "Perak"
  },
  {
    "postcode": "31650",
    "state": "Perak"
  },
  {
    "postcode": "31700",
    "state": "Perak"
  },
  {
    "postcode": "31750",
    "state": "Perak"
  },
  {
    "postcode": "31800",
    "state": "Perak"
  },
  {
    "postcode": "31850",
    "state": "Perak"
  },
  {
    "postcode": "31900",
    "state": "Perak"
  },
  {
    "postcode": "31907",
    "state": "Perak"
  },
  {
    "postcode": "31909",
    "state": "Perak"
  },
  {
    "postcode": "31910",
    "state": "Perak"
  },
  {
    "postcode": "31920",
    "state": "Perak"
  },
  {
    "postcode": "31950",
    "state": "Perak"
  },
  {
    "postcode": "32000",
    "state": "Perak"
  },
  {
    "postcode": "32040",
    "state": "Perak"
  },
  {
    "postcode": "32100",
    "state": "Perak"
  },
  {
    "postcode": "32200",
    "state": "Perak"
  },
  {
    "postcode": "32300",
    "state": "Perak"
  },
  {
    "postcode": "32400",
    "state": "Perak"
  },
  {
    "postcode": "32500",
    "state": "Perak"
  },
  {
    "postcode": "32600",
    "state": "Perak"
  },
  {
    "postcode": "32610",
    "state": "Perak"
  },
  {
    "postcode": "32700",
    "state": "Perak"
  },
  {
    "postcode": "32800",
    "state": "Perak"
  },
  {
    "postcode": "32900",
    "state": "Perak"
  },
  {
    "postcode": "33000",
    "state": "Perak"
  },
  {
    "postcode": "33007",
    "state": "Perak"
  },
  {
    "postcode": "33009",
    "state": "Perak"
  },
  {
    "postcode": "33010",
    "state": "Perak"
  },
  {
    "postcode": "33020",
    "state": "Perak"
  },
  {
    "postcode": "33030",
    "state": "Perak"
  },
  {
    "postcode": "33040",
    "state": "Perak"
  },
  {
    "postcode": "33100",
    "state": "Perak"
  },
  {
    "postcode": "33200",
    "state": "Perak"
  },
  {
    "postcode": "33300",
    "state": "Perak"
  },
  {
    "postcode": "33310",
    "state": "Perak"
  },
  {
    "postcode": "33320",
    "state": "Perak"
  },
  {
    "postcode": "33400",
    "state": "Perak"
  },
  {
    "postcode": "33410",
    "state": "Perak"
  },
  {
    "postcode": "33420",
    "state": "Perak"
  },
  {
    "postcode": "33500",
    "state": "Perak"
  },
  {
    "postcode": "33600",
    "state": "Perak"
  },
  {
    "postcode": "33700",
    "state": "Perak"
  },
  {
    "postcode": "33800",
    "state": "Perak"
  },
  {
    "postcode": "34000",
    "state": "Perak"
  },
  {
    "postcode": "34007",
    "state": "Perak"
  },
  {
    "postcode": "34008",
    "state": "Perak"
  },
  {
    "postcode": "34009",
    "state": "Perak"
  },
  {
    "postcode": "34010",
    "state": "Perak"
  },
  {
    "postcode": "34020",
    "state": "Perak"
  },
  {
    "postcode": "34030",
    "state": "Perak"
  },
  {
    "postcode": "34100",
    "state": "Perak"
  },
  {
    "postcode": "34120",
    "state": "Perak"
  },
  {
    "postcode": "34130",
    "state": "Perak"
  },
  {
    "postcode": "34140",
    "state": "Perak"
  },
  {
    "postcode": "34200",
    "state": "Perak"
  },
  {
    "postcode": "34250",
    "state": "Perak"
  },
  {
    "postcode": "34300",
    "state": "Perak"
  },
  {
    "postcode": "34310",
    "state": "Perak"
  },
  {
    "postcode": "34350",
    "state": "Perak"
  },
  {
    "postcode": "34400",
    "state": "Perak"
  },
  {
    "postcode": "34500",
    "state": "Perak"
  },
  {
    "postcode": "34510",
    "state": "Perak"
  },
  {
    "postcode": "34520",
    "state": "Perak"
  },
  {
    "postcode": "34600",
    "state": "Perak"
  },
  {
    "postcode": "34650",
    "state": "Perak"
  },
  {
    "postcode": "34700",
    "state": "Perak"
  },
  {
    "postcode": "34750",
    "state": "Perak"
  },
  {
    "postcode": "34800",
    "state": "Perak"
  },
  {
    "postcode": "34850",
    "state": "Perak"
  },
  {
    "postcode": "34900",
    "state": "Perak"
  },
  {
    "postcode": "34950",
    "state": "Kedah"
  },
  {
    "postcode": "35000",
    "state": "Perak"
  },
  {
    "postcode": "35007",
    "state": "Perak"
  },
  {
    "postcode": "35009",
    "state": "Perak"
  },
  {
    "postcode": "35300",
    "state": "Perak"
  },
  {
    "postcode": "35350",
    "state": "Perak"
  },
  {
    "postcode": "35400",
    "state": "Perak"
  },
  {
    "postcode": "35500",
    "state": "Perak"
  },
  {
    "postcode": "35600",
    "state": "Perak"
  },
  {
    "postcode": "35700",
    "state": "Perak"
  },
  {
    "postcode": "35800",
    "state": "Perak"
  },
  {
    "postcode": "35820",
    "state": "Perak"
  },
  {
    "postcode": "35900",
    "state": "Perak"
  },
  {
    "postcode": "35907",
    "state": "Perak"
  },
  {
    "postcode": "35909",
    "state": "Perak"
  },
  {
    "postcode": "35910",
    "state": "Perak"
  },
  {
    "postcode": "35950",
    "state": "Perak"
  },
  {
    "postcode": "36000",
    "state": "Perak"
  },
  {
    "postcode": "36007",
    "state": "Perak"
  },
  {
    "postcode": "36008",
    "state": "Perak"
  },
  {
    "postcode": "36009",
    "state": "Perak"
  },
  {
    "postcode": "36010",
    "state": "Perak"
  },
  {
    "postcode": "36020",
    "state": "Perak"
  },
  {
    "postcode": "36030",
    "state": "Perak"
  },
  {
    "postcode": "36100",
    "state": "Perak"
  },
  {
    "postcode": "36110",
    "state": "Perak"
  },
  {
    "postcode": "36200",
    "state": "Perak"
  },
  {
    "postcode": "36207",
    "state": "Perak"
  },
  {
    "postcode": "36209",
    "state": "Perak"
  },
  {
    "postcode": "36300",
    "state": "Perak"
  },
  {
    "postcode": "36307",
    "state": "Perak"
  },
  {
    "postcode": "36309",
    "state": "Perak"
  },
  {
    "postcode": "36400",
    "state": "Perak"
  },
  {
    "postcode": "36500",
    "state": "Perak"
  },
  {
    "postcode": "36600",
    "state": "Perak"
  },
  {
    "postcode": "36700",
    "state": "Perak"
  },
  {
    "postcode": "36750",
    "state": "Perak"
  },
  {
    "postcode": "36800",
    "state": "Perak"
  },
  {
    "postcode": "36810",
    "state": "Perak"
  },
  {
    "postcode": "39000",
    "state": "Pahang"
  },
  {
    "postcode": "39007",
    "state": "Pahang"
  },
  {
    "postcode": "39009",
    "state": "Pahang"
  },
  {
    "postcode": "39010",
    "state": "Pahang"
  },
  {
    "postcode": "39100",
    "state": "Pahang"
  },
  {
    "postcode": "39200",
    "state": "Pahang"
  },
  {
    "postcode": "40000",
    "state": "Selangor"
  },
  {
    "postcode": "40100",
    "state": "Selangor"
  },
  {
    "postcode": "40150",
    "state": "Selangor"
  },
  {
    "postcode": "40160",
    "state": "Selangor"
  },
  {
    "postcode": "40170",
    "state": "Selangor"
  },
  {
    "postcode": "40200",
    "state": "Selangor"
  },
  {
    "postcode": "40300",
    "state": "Selangor"
  },
  {
    "postcode": "40400",
    "state": "Selangor"
  },
  {
    "postcode": "40450",
    "state": "Selangor"
  },
  {
    "postcode": "40460",
    "state": "Selangor"
  },
  {
    "postcode": "40470",
    "state": "Selangor"
  },
  {
    "postcode": "40500",
    "state": "Selangor"
  },
  {
    "postcode": "40502",
    "state": "Selangor"
  },
  {
    "postcode": "40503",
    "state": "Selangor"
  },
  {
    "postcode": "40505",
    "state": "Selangor"
  },
  {
    "postcode": "40512",
    "state": "Selangor"
  },
  {
    "postcode": "40517",
    "state": "Selangor"
  },
  {
    "postcode": "40520",
    "state": "Selangor"
  },
  {
    "postcode": "40529",
    "state": "Selangor"
  },
  {
    "postcode": "40542",
    "state": "Selangor"
  },
  {
    "postcode": "40548",
    "state": "Selangor"
  },
  {
    "postcode": "40550",
    "state": "Selangor"
  },
  {
    "postcode": "40551",
    "state": "Selangor"
  },
  {
    "postcode": "40560",
    "state": "Selangor"
  },
  {
    "postcode": "40564",
    "state": "Selangor"
  },
  {
    "postcode": "40570",
    "state": "Selangor"
  },
  {
    "postcode": "40572",
    "state": "Selangor"
  },
  {
    "postcode": "40576",
    "state": "Selangor"
  },
  {
    "postcode": "40578",
    "state": "Selangor"
  },
  {
    "postcode": "40582",
    "state": "Selangor"
  },
  {
    "postcode": "40590",
    "state": "Selangor"
  },
  {
    "postcode": "40592",
    "state": "Selangor"
  },
  {
    "postcode": "40594",
    "state": "Selangor"
  },
  {
    "postcode": "40596",
    "state": "Selangor"
  },
  {
    "postcode": "40598",
    "state": "Selangor"
  },
  {
    "postcode": "40604",
    "state": "Selangor"
  },
  {
    "postcode": "40607",
    "state": "Selangor"
  },
  {
    "postcode": "40608",
    "state": "Selangor"
  },
  {
    "postcode": "40610",
    "state": "Selangor"
  },
  {
    "postcode": "40612",
    "state": "Selangor"
  },
  {
    "postcode": "40620",
    "state": "Selangor"
  },
  {
    "postcode": "40622",
    "state": "Selangor"
  },
  {
    "postcode": "40626",
    "state": "Selangor"
  },
  {
    "postcode": "40632",
    "state": "Selangor"
  },
  {
    "postcode": "40646",
    "state": "Selangor"
  },
  {
    "postcode": "40648",
    "state": "Selangor"
  },
  {
    "postcode": "40660",
    "state": "Selangor"
  },
  {
    "postcode": "40664",
    "state": "Selangor"
  },
  {
    "postcode": "40670",
    "state": "Selangor"
  },
  {
    "postcode": "40672",
    "state": "Selangor"
  },
  {
    "postcode": "40673",
    "state": "Selangor"
  },
  {
    "postcode": "40674",
    "state": "Selangor"
  },
  {
    "postcode": "40675",
    "state": "Selangor"
  },
  {
    "postcode": "40676",
    "state": "Selangor"
  },
  {
    "postcode": "40680",
    "state": "Selangor"
  },
  {
    "postcode": "40690",
    "state": "Selangor"
  },
  {
    "postcode": "40700",
    "state": "Selangor"
  },
  {
    "postcode": "40702",
    "state": "Selangor"
  },
  {
    "postcode": "40704",
    "state": "Selangor"
  },
  {
    "postcode": "40706",
    "state": "Selangor"
  },
  {
    "postcode": "40708",
    "state": "Selangor"
  },
  {
    "postcode": "40710",
    "state": "Selangor"
  },
  {
    "postcode": "40712",
    "state": "Selangor"
  },
  {
    "postcode": "40714",
    "state": "Selangor"
  },
  {
    "postcode": "40716",
    "state": "Selangor"
  },
  {
    "postcode": "40718",
    "state": "Selangor"
  },
  {
    "postcode": "40720",
    "state": "Selangor"
  },
  {
    "postcode": "40722",
    "state": "Selangor"
  },
  {
    "postcode": "40724",
    "state": "Selangor"
  },
  {
    "postcode": "40726",
    "state": "Selangor"
  },
  {
    "postcode": "40728",
    "state": "Selangor"
  },
  {
    "postcode": "40730",
    "state": "Selangor"
  },
  {
    "postcode": "40732",
    "state": "Selangor"
  },
  {
    "postcode": "40800",
    "state": "Selangor"
  },
  {
    "postcode": "40802",
    "state": "Selangor"
  },
  {
    "postcode": "40804",
    "state": "Selangor"
  },
  {
    "postcode": "40806",
    "state": "Selangor"
  },
  {
    "postcode": "40808",
    "state": "Selangor"
  },
  {
    "postcode": "40810",
    "state": "Selangor"
  },
  {
    "postcode": "40990",
    "state": "Selangor"
  },
  {
    "postcode": "41000",
    "state": "Selangor"
  },
  {
    "postcode": "41050",
    "state": "Selangor"
  },
  {
    "postcode": "41100",
    "state": "Selangor"
  },
  {
    "postcode": "41150",
    "state": "Selangor"
  },
  {
    "postcode": "41200",
    "state": "Selangor"
  },
  {
    "postcode": "41250",
    "state": "Selangor"
  },
  {
    "postcode": "41300",
    "state": "Selangor"
  },
  {
    "postcode": "41400",
    "state": "Selangor"
  },
  {
    "postcode": "41506",
    "state": "Selangor"
  },
  {
    "postcode": "41560",
    "state": "Selangor"
  },
  {
    "postcode": "41586",
    "state": "Selangor"
  },
  {
    "postcode": "41672",
    "state": "Selangor"
  },
  {
    "postcode": "41700",
    "state": "Selangor"
  },
  {
    "postcode": "41710",
    "state": "Selangor"
  },
  {
    "postcode": "41720",
    "state": "Selangor"
  },
  {
    "postcode": "41900",
    "state": "Selangor"
  },
  {
    "postcode": "41902",
    "state": "Selangor"
  },
  {
    "postcode": "41904",
    "state": "Selangor"
  },
  {
    "postcode": "41906",
    "state": "Selangor"
  },
  {
    "postcode": "41908",
    "state": "Selangor"
  },
  {
    "postcode": "41910",
    "state": "Selangor"
  },
  {
    "postcode": "41912",
    "state": "Selangor"
  },
  {
    "postcode": "41914",
    "state": "Selangor"
  },
  {
    "postcode": "41916",
    "state": "Selangor"
  },
  {
    "postcode": "41918",
    "state": "Selangor"
  },
  {
    "postcode": "41990",
    "state": "Selangor"
  },
  {
    "postcode": "42000",
    "state": "Selangor"
  },
  {
    "postcode": "42009",
    "state": "Selangor"
  },
  {
    "postcode": "42100",
    "state": "Selangor"
  },
  {
    "postcode": "42200",
    "state": "Selangor"
  },
  {
    "postcode": "42300",
    "state": "Selangor"
  },
  {
    "postcode": "42425",
    "state": "Selangor"
  },
  {
    "postcode": "42500",
    "state": "Selangor"
  },
  {
    "postcode": "42507",
    "state": "Selangor"
  },
  {
    "postcode": "42509",
    "state": "Selangor"
  },
  {
    "postcode": "42600",
    "state": "Selangor"
  },
  {
    "postcode": "42610",
    "state": "Selangor"
  },
  {
    "postcode": "42700",
    "state": "Selangor"
  },
  {
    "postcode": "42800",
    "state": "Selangor"
  },
  {
    "postcode": "42920",
    "state": "Selangor"
  },
  {
    "postcode": "42940",
    "state": "Selangor"
  },
  {
    "postcode": "42960",
    "state": "Selangor"
  },
  {
    "postcode": "43000",
    "state": "Selangor"
  },
  {
    "postcode": "43007",
    "state": "Selangor"
  },
  {
    "postcode": "43009",
    "state": "Selangor"
  },
  {
    "postcode": "43100",
    "state": "Selangor"
  },
  {
    "postcode": "43200",
    "state": "Selangor"
  },
  {
    "postcode": "43207",
    "state": "Selangor"
  },
  {
    "postcode": "43300",
    "state": "Selangor"
  },
  {
    "postcode": "43400",
    "state": "Selangor"
  },
  {
    "postcode": "43500",
    "state": "Selangor"
  },
  {
    "postcode": "43558",
    "state": "Selangor"
  },
  {
    "postcode": "43600",
    "state": "Selangor"
  },
  {
    "postcode": "43650",
    "state": "Selangor"
  },
  {
    "postcode": "43700",
    "state": "Selangor"
  },
  {
    "postcode": "43800",
    "state": "Selangor"
  },
  {
    "postcode": "43807",
    "state": "Selangor"
  },
  {
    "postcode": "43900",
    "state": "Selangor"
  },
  {
    "postcode": "43950",
    "state": "Selangor"
  },
  {
    "postcode": "44000",
    "state": "Selangor"
  },
  {
    "postcode": "44010",
    "state": "Selangor"
  },
  {
    "postcode": "44020",
    "state": "Selangor"
  },
  {
    "postcode": "44100",
    "state": "Selangor"
  },
  {
    "postcode": "44110",
    "state": "Selangor"
  },
  {
    "postcode": "44200",
    "state": "Selangor"
  },
  {
    "postcode": "44300",
    "state": "Selangor"
  },
  {
    "postcode": "45000",
    "state": "Selangor"
  },
  {
    "postcode": "45100",
    "state": "Selangor"
  },
  {
    "postcode": "45200",
    "state": "Selangor"
  },
  {
    "postcode": "45207",
    "state": "Selangor"
  },
  {
    "postcode": "45209",
    "state": "Selangor"
  },
  {
    "postcode": "45300",
    "state": "Selangor"
  },
  {
    "postcode": "45400",
    "state": "Selangor"
  },
  {
    "postcode": "45500",
    "state": "Selangor"
  },
  {
    "postcode": "45600",
    "state": "Selangor"
  },
  {
    "postcode": "45607",
    "state": "Selangor"
  },
  {
    "postcode": "45609",
    "state": "Selangor"
  },
  {
    "postcode": "45620",
    "state": "Selangor"
  },
  {
    "postcode": "45700",
    "state": "Selangor"
  },
  {
    "postcode": "45800",
    "state": "Selangor"
  },
  {
    "postcode": "46000",
    "state": "Selangor"
  },
  {
    "postcode": "46050",
    "state": "Selangor"
  },
  {
    "postcode": "46100",
    "state": "Selangor"
  },
  {
    "postcode": "46150",
    "state": "Selangor"
  },
  {
    "postcode": "46200",
    "state": "Selangor"
  },
  {
    "postcode": "46300",
    "state": "Selangor"
  },
  {
    "postcode": "46350",
    "state": "Selangor"
  },
  {
    "postcode": "46400",
    "state": "Selangor"
  },
  {
    "postcode": "46506",
    "state": "Selangor"
  },
  {
    "postcode": "46547",
    "state": "Selangor"
  },
  {
    "postcode": "46549",
    "state": "Selangor"
  },
  {
    "postcode": "46551",
    "state": "Selangor"
  },
  {
    "postcode": "46564",
    "state": "Selangor"
  },
  {
    "postcode": "46582",
    "state": "Selangor"
  },
  {
    "postcode": "46598",
    "state": "Selangor"
  },
  {
    "postcode": "46662",
    "state": "Selangor"
  },
  {
    "postcode": "46667",
    "state": "Selangor"
  },
  {
    "postcode": "46668",
    "state": "Selangor"
  },
  {
    "postcode": "46672",
    "state": "Selangor"
  },
  {
    "postcode": "46675",
    "state": "Selangor"
  },
  {
    "postcode": "46700",
    "state": "Selangor"
  },
  {
    "postcode": "46710",
    "state": "Selangor"
  },
  {
    "postcode": "46720",
    "state": "Selangor"
  },
  {
    "postcode": "46730",
    "state": "Selangor"
  },
  {
    "postcode": "46740",
    "state": "Selangor"
  },
  {
    "postcode": "46750",
    "state": "Selangor"
  },
  {
    "postcode": "46760",
    "state": "Selangor"
  },
  {
    "postcode": "46770",
    "state": "Selangor"
  },
  {
    "postcode": "46780",
    "state": "Selangor"
  },
  {
    "postcode": "46781",
    "state": "Selangor"
  },
  {
    "postcode": "46782",
    "state": "Selangor"
  },
  {
    "postcode": "46783",
    "state": "Selangor"
  },
  {
    "postcode": "46784",
    "state": "Selangor"
  },
  {
    "postcode": "46785",
    "state": "Selangor"
  },
  {
    "postcode": "46786",
    "state": "Selangor"
  },
  {
    "postcode": "46787",
    "state": "Selangor"
  },
  {
    "postcode": "46788",
    "state": "Selangor"
  },
  {
    "postcode": "46789",
    "state": "Selangor"
  },
  {
    "postcode": "46790",
    "state": "Selangor"
  },
  {
    "postcode": "46791",
    "state": "Selangor"
  },
  {
    "postcode": "46792",
    "state": "Selangor"
  },
  {
    "postcode": "46793",
    "state": "Selangor"
  },
  {
    "postcode": "46794",
    "state": "Selangor"
  },
  {
    "postcode": "46795",
    "state": "Selangor"
  },
  {
    "postcode": "46796",
    "state": "Selangor"
  },
  {
    "postcode": "46797",
    "state": "Selangor"
  },
  {
    "postcode": "46798",
    "state": "Selangor"
  },
  {
    "postcode": "46799",
    "state": "Selangor"
  },
  {
    "postcode": "46800",
    "state": "Selangor"
  },
  {
    "postcode": "46801",
    "state": "Selangor"
  },
  {
    "postcode": "46802",
    "state": "Selangor"
  },
  {
    "postcode": "46803",
    "state": "Selangor"
  },
  {
    "postcode": "46804",
    "state": "Selangor"
  },
  {
    "postcode": "46805",
    "state": "Selangor"
  },
  {
    "postcode": "46806",
    "state": "Selangor"
  },
  {
    "postcode": "46860",
    "state": "Selangor"
  },
  {
    "postcode": "46870",
    "state": "Selangor"
  },
  {
    "postcode": "46960",
    "state": "Selangor"
  },
  {
    "postcode": "46962",
    "state": "Selangor"
  },
  {
    "postcode": "46964",
    "state": "Selangor"
  },
  {
    "postcode": "46966",
    "state": "Selangor"
  },
  {
    "postcode": "46968",
    "state": "Selangor"
  },
  {
    "postcode": "46970",
    "state": "Selangor"
  },
  {
    "postcode": "46972",
    "state": "Selangor"
  },
  {
    "postcode": "46974",
    "state": "Selangor"
  },
  {
    "postcode": "46976",
    "state": "Selangor"
  },
  {
    "postcode": "46978",
    "state": "Selangor"
  },
  {
    "postcode": "47000",
    "state": "Selangor"
  },
  {
    "postcode": "47100",
    "state": "Selangor"
  },
  {
    "postcode": "47110",
    "state": "Selangor"
  },
  {
    "postcode": "47120",
    "state": "Selangor"
  },
  {
    "postcode": "47130",
    "state": "Selangor"
  },
  {
    "postcode": "47140",
    "state": "Selangor"
  },
  {
    "postcode": "47150",
    "state": "Selangor"
  },
  {
    "postcode": "47160",
    "state": "Selangor"
  },
  {
    "postcode": "47170",
    "state": "Selangor"
  },
  {
    "postcode": "47180",
    "state": "Selangor"
  },
  {
    "postcode": "47190",
    "state": "Selangor"
  },
  {
    "postcode": "47200",
    "state": "Selangor"
  },
  {
    "postcode": "47300",
    "state": "Selangor"
  },
  {
    "postcode": "47301",
    "state": "Selangor"
  },
  {
    "postcode": "47307",
    "state": "Selangor"
  },
  {
    "postcode": "47308",
    "state": "Selangor"
  },
  {
    "postcode": "47400",
    "state": "Selangor"
  },
  {
    "postcode": "47410",
    "state": "Selangor"
  },
  {
    "postcode": "47500",
    "state": "Selangor"
  },
  {
    "postcode": "47507",
    "state": "Selangor"
  },
  {
    "postcode": "47600",
    "state": "Selangor"
  },
  {
    "postcode": "47610",
    "state": "Selangor"
  },
  {
    "postcode": "47620",
    "state": "Selangor"
  },
  {
    "postcode": "47630",
    "state": "Selangor"
  },
  {
    "postcode": "47640",
    "state": "Selangor"
  },
  {
    "postcode": "47650",
    "state": "Selangor"
  },
  {
    "postcode": "47800",
    "state": "Selangor"
  },
  {
    "postcode": "47810",
    "state": "Selangor"
  },
  {
    "postcode": "47820",
    "state": "Selangor"
  },
  {
    "postcode": "47830",
    "state": "Selangor"
  },
  {
    "postcode": "48000",
    "state": "Selangor"
  },
  {
    "postcode": "48010",
    "state": "Selangor"
  },
  {
    "postcode": "48020",
    "state": "Selangor"
  },
  {
    "postcode": "48050",
    "state": "Selangor"
  },
  {
    "postcode": "48100",
    "state": "Selangor"
  },
  {
    "postcode": "48200",
    "state": "Selangor"
  },
  {
    "postcode": "48300",
    "state": "Selangor"
  },
  {
    "postcode": "49000",
    "state": "Pahang"
  },
  {
    "postcode": "50000",
    "state": "Kuala Lumpur"
  },
  {
    "postcode": "50050",
    "state": "Kuala Lumpur"
  },
  {
    "postcode": "50088",
    "state": "Kuala Lumpur"
  },
  {
    "postcode": "50100",
    "state": "Kuala Lumpur"
  },
  {
    "postcode": "50150",
    "state": "Kuala Lumpur"
  },
  {
    "postcode": "50200",
    "state": "Kuala Lumpur"
  },
  {
    "postcode": "50250",
    "state": "Kuala Lumpur"
  },
  {
    "postcode": "50300",
    "state": "Kuala Lumpur"
  },
  {
    "postcode": "50350",
    "state": "Kuala Lumpur"
  },
  {
    "postcode": "50400",
    "state": "Kuala Lumpur"
  },
  {
    "postcode": "50450",
    "state": "Kuala Lumpur"
  },
  {
    "postcode": "50460",
    "state": "Kuala Lumpur"
  },
  {
    "postcode": "50470",
    "state": "Kuala Lumpur"
  },
  {
    "postcode": "50480",
    "state": "Kuala Lumpur"
  },
  {
    "postcode": "50490",
    "state": "Kuala Lumpur"
  },
  {
    "postcode": "50500",
    "state": "Kuala Lumpur"
  },
  {
    "postcode": "50502",
    "state": "Kuala Lumpur"
  },
  {
    "postcode": "50504",
    "state": "Kuala Lumpur"
  },
  {
    "postcode": "50505",
    "state": "Kuala Lumpur"
  },
  {
    "postcode": "50506",
    "state": "Kuala Lumpur"
  },
  {
    "postcode": "50507",
    "state": "Kuala Lumpur"
  },
  {
    "postcode": "50508",
    "state": "Kuala Lumpur"
  },
  {
    "postcode": "50512",
    "state": "Kuala Lumpur"
  },
  {
    "postcode": "50514",
    "state": "Kuala Lumpur"
  },
  {
    "postcode": "50515",
    "state": "Kuala Lumpur"
  },
  {
    "postcode": "50519",
    "state": "Kuala Lumpur"
  },
  {
    "postcode": "50528",
    "state": "Kuala Lumpur"
  },
  {
    "postcode": "50529",
    "state": "Kuala Lumpur"
  },
  {
    "postcode": "50530",
    "state": "Kuala Lumpur"
  },
  {
    "postcode": "50532",
    "state": "Kuala Lumpur"
  },
  {
    "postcode": "50534",
    "state": "Kuala Lumpur"
  },
  {
    "postcode": "50536",
    "state": "Kuala Lumpur"
  },
  {
    "postcode": "50540",
    "state": "Kuala Lumpur"
  },
  {
    "postcode": "50544",
    "state": "Kuala Lumpur"
  },
  {
    "postcode": "50546",
    "state": "Kuala Lumpur"
  },
  {
    "postcode": "50548",
    "state": "Kuala Lumpur"
  },
  {
    "postcode": "50550",
    "state": "Kuala Lumpur"
  },
  {
    "postcode": "50551",
    "state": "Kuala Lumpur"
  },
  {
    "postcode": "50552",
    "state": "Kuala Lumpur"
  },
  {
    "postcode": "50554",
    "state": "Kuala Lumpur"
  },
  {
    "postcode": "50556",
    "state": "Kuala Lumpur"
  },
  {
    "postcode": "50560",
    "state": "Kuala Lumpur"
  },
  {
    "postcode": "50562",
    "state": "Kuala Lumpur"
  },
  {
    "postcode": "50564",
    "state": "Kuala Lumpur"
  },
  {
    "postcode": "50566",
    "state": "Kuala Lumpur"
  },
  {
    "postcode": "50568",
    "state": "Kuala Lumpur"
  },
  {
    "postcode": "50572",
    "state": "Kuala Lumpur"
  },
  {
    "postcode": "50576",
    "state": "Kuala Lumpur"
  },
  {
    "postcode": "50578",
    "state": "Kuala Lumpur"
  },
  {
    "postcode": "50580",
    "state": "Kuala Lumpur"
  },
  {
    "postcode": "50582",
    "state": "Kuala Lumpur"
  },
  {
    "postcode": "50586",
    "state": "Kuala Lumpur"
  },
  {
    "postcode": "50588",
    "state": "Kuala Lumpur"
  },
  {
    "postcode": "50590",
    "state": "Kuala Lumpur"
  },
  {
    "postcode": "50592",
    "state": "Kuala Lumpur"
  },
  {
    "postcode": "50594",
    "state": "Kuala Lumpur"
  },
  {
    "postcode": "50596",
    "state": "Kuala Lumpur"
  },
  {
    "postcode": "50598",
    "state": "Kuala Lumpur"
  },
  {
    "postcode": "50599",
    "state": "Kuala Lumpur"
  },
  {
    "postcode": "50600",
    "state": "Kuala Lumpur"
  },
  {
    "postcode": "50603",
    "state": "Kuala Lumpur"
  },
  {
    "postcode": "50604",
    "state": "Kuala Lumpur"
  },
  {
    "postcode": "50605",
    "state": "Kuala Lumpur"
  },
  {
    "postcode": "50608",
    "state": "Kuala Lumpur"
  },
  {
    "postcode": "50609",
    "state": "Kuala Lumpur"
  },
  {
    "postcode": "50610",
    "state": "Kuala Lumpur"
  },
  {
    "postcode": "50612",
    "state": "Kuala Lumpur"
  },
  {
    "postcode": "50614",
    "state": "Kuala Lumpur"
  },
  {
    "postcode": "50620",
    "state": "Kuala Lumpur"
  },
  {
    "postcode": "50621",
    "state": "Kuala Lumpur"
  },
  {
    "postcode": "50622",
    "state": "Kuala Lumpur"
  },
  {
    "postcode": "50623",
    "state": "Kuala Lumpur"
  },
  {
    "postcode": "50626",
    "state": "Kuala Lumpur"
  },
  {
    "postcode": "50632",
    "state": "Kuala Lumpur"
  },
  {
    "postcode": "50634",
    "state": "Kuala Lumpur"
  },
  {
    "postcode": "50636",
    "state": "Kuala Lumpur"
  },
  {
    "postcode": "50638",
    "state": "Kuala Lumpur"
  },
  {
    "postcode": "50640",
    "state": "Kuala Lumpur"
  },
  {
    "postcode": "50642",
    "state": "Kuala Lumpur"
  },
  {
    "postcode": "50644",
    "state": "Kuala Lumpur"
  },
  {
    "postcode": "50646",
    "state": "Kuala Lumpur"
  },
  {
    "postcode": "50648",
    "state": "Kuala Lumpur"
  },
  {
    "postcode": "50650",
    "state": "Kuala Lumpur"
  },
  {
    "postcode": "50652",
    "state": "Kuala Lumpur"
  },
  {
    "postcode": "50653",
    "state": "Kuala Lumpur"
  },
  {
    "postcode": "50656",
    "state": "Kuala Lumpur"
  },
  {
    "postcode": "50658",
    "state": "Kuala Lumpur"
  },
  {
    "postcode": "50660",
    "state": "Kuala Lumpur"
  },
  {
    "postcode": "50661",
    "state": "Kuala Lumpur"
  },
  {
    "postcode": "50662",
    "state": "Kuala Lumpur"
  },
  {
    "postcode": "50664",
    "state": "Kuala Lumpur"
  },
  {
    "postcode": "50666",
    "state": "Kuala Lumpur"
  },
  {
    "postcode": "50668",
    "state": "Kuala Lumpur"
  },
  {
    "postcode": "50670",
    "state": "Kuala Lumpur"
  },
  {
    "postcode": "50672",
    "state": "Kuala Lumpur"
  },
  {
    "postcode": "50673",
    "state": "Kuala Lumpur"
  },
  {
    "postcode": "50676",
    "state": "Kuala Lumpur"
  },
  {
    "postcode": "50677",
    "state": "Kuala Lumpur"
  },
  {
    "postcode": "50678",
    "state": "Kuala Lumpur"
  },
  {
    "postcode": "50680",
    "state": "Kuala Lumpur"
  },
  {
    "postcode": "50682",
    "state": "Kuala Lumpur"
  },
  {
    "postcode": "50684",
    "state": "Kuala Lumpur"
  },
  {
    "postcode": "50688",
    "state": "Kuala Lumpur"
  },
  {
    "postcode": "50694",
    "state": "Kuala Lumpur"
  },
  {
    "postcode": "50700",
    "state": "Kuala Lumpur"
  },
  {
    "postcode": "50702",
    "state": "Kuala Lumpur"
  },
  {
    "postcode": "50704",
    "state": "Kuala Lumpur"
  },
  {
    "postcode": "50706",
    "state": "Kuala Lumpur"
  },
  {
    "postcode": "50708",
    "state": "Kuala Lumpur"
  },
  {
    "postcode": "50710",
    "state": "Kuala Lumpur"
  },
  {
    "postcode": "50712",
    "state": "Kuala Lumpur"
  },
  {
    "postcode": "50714",
    "state": "Kuala Lumpur"
  },
  {
    "postcode": "50716",
    "state": "Kuala Lumpur"
  },
  {
    "postcode": "50718",
    "state": "Kuala Lumpur"
  },
  {
    "postcode": "50720",
    "state": "Kuala Lumpur"
  },
  {
    "postcode": "50722",
    "state": "Kuala Lumpur"
  },
  {
    "postcode": "50724",
    "state": "Kuala Lumpur"
  },
  {
    "postcode": "50726",
    "state": "Kuala Lumpur"
  },
  {
    "postcode": "50728",
    "state": "Kuala Lumpur"
  },
  {
    "postcode": "50730",
    "state": "Kuala Lumpur"
  },
  {
    "postcode": "50732",
    "state": "Kuala Lumpur"
  },
  {
    "postcode": "50734",
    "state": "Kuala Lumpur"
  },
  {
    "postcode": "50736",
    "state": "Kuala Lumpur"
  },
  {
    "postcode": "50738",
    "state": "Kuala Lumpur"
  },
  {
    "postcode": "50740",
    "state": "Kuala Lumpur"
  },
  {
    "postcode": "50742",
    "state": "Kuala Lumpur"
  },
  {
    "postcode": "50744",
    "state": "Kuala Lumpur"
  },
  {
    "postcode": "50746",
    "state": "Kuala Lumpur"
  },
  {
    "postcode": "50748",
    "state": "Kuala Lumpur"
  },
  {
    "postcode": "50750",
    "state": "Kuala Lumpur"
  },
  {
    "postcode": "50752",
    "state": "Kuala Lumpur"
  },
  {
    "postcode": "50754",
    "state": "Kuala Lumpur"
  },
  {
    "postcode": "50758",
    "state": "Kuala Lumpur"
  },
  {
    "postcode": "50760",
    "state": "Kuala Lumpur"
  },
  {
    "postcode": "50762",
    "state": "Kuala Lumpur"
  },
  {
    "postcode": "50764",
    "state": "Kuala Lumpur"
  },
  {
    "postcode": "50766",
    "state": "Kuala Lumpur"
  },
  {
    "postcode": "50768",
    "state": "Kuala Lumpur"
  },
  {
    "postcode": "50770",
    "state": "Kuala Lumpur"
  },
  {
    "postcode": "50772",
    "state": "Kuala Lumpur"
  },
  {
    "postcode": "50774",
    "state": "Kuala Lumpur"
  },
  {
    "postcode": "50776",
    "state": "Kuala Lumpur"
  },
  {
    "postcode": "50778",
    "state": "Kuala Lumpur"
  },
  {
    "postcode": "50780",
    "state": "Kuala Lumpur"
  },
  {
    "postcode": "50782",
    "state": "Kuala Lumpur"
  },
  {
    "postcode": "50784",
    "state": "Kuala Lumpur"
  },
  {
    "postcode": "50786",
    "state": "Kuala Lumpur"
  },
  {
    "postcode": "50788",
    "state": "Kuala Lumpur"
  },
  {
    "postcode": "50790",
    "state": "Kuala Lumpur"
  },
  {
    "postcode": "50792",
    "state": "Kuala Lumpur"
  },
  {
    "postcode": "50794",
    "state": "Kuala Lumpur"
  },
  {
    "postcode": "50796",
    "state": "Kuala Lumpur"
  },
  {
    "postcode": "50798",
    "state": "Kuala Lumpur"
  },
  {
    "postcode": "50800",
    "state": "Kuala Lumpur"
  },
  {
    "postcode": "50802",
    "state": "Kuala Lumpur"
  },
  {
    "postcode": "50804",
    "state": "Kuala Lumpur"
  },
  {
    "postcode": "50806",
    "state": "Kuala Lumpur"
  },
  {
    "postcode": "50808",
    "state": "Kuala Lumpur"
  },
  {
    "postcode": "50810",
    "state": "Kuala Lumpur"
  },
  {
    "postcode": "50812",
    "state": "Kuala Lumpur"
  },
  {
    "postcode": "50814",
    "state": "Kuala Lumpur"
  },
  {
    "postcode": "50816",
    "state": "Kuala Lumpur"
  },
  {
    "postcode": "50818",
    "state": "Kuala Lumpur"
  },
  {
    "postcode": "50901",
    "state": "Kuala Lumpur"
  },
  {
    "postcode": "50902",
    "state": "Kuala Lumpur"
  },
  {
    "postcode": "50903",
    "state": "Kuala Lumpur"
  },
  {
    "postcode": "50904",
    "state": "Kuala Lumpur"
  },
  {
    "postcode": "50906",
    "state": "Kuala Lumpur"
  },
  {
    "postcode": "50907",
    "state": "Kuala Lumpur"
  },
  {
    "postcode": "50908",
    "state": "Kuala Lumpur"
  },
  {
    "postcode": "50909",
    "state": "Kuala Lumpur"
  },
  {
    "postcode": "50910",
    "state": "Kuala Lumpur"
  },
  {
    "postcode": "50911",
    "state": "Kuala Lumpur"
  },
  {
    "postcode": "50912",
    "state": "Kuala Lumpur"
  },
  {
    "postcode": "50913",
    "state": "Kuala Lumpur"
  },
  {
    "postcode": "50914",
    "state": "Kuala Lumpur"
  },
  {
    "postcode": "50915",
    "state": "Kuala Lumpur"
  },
  {
    "postcode": "50916",
    "state": "Kuala Lumpur"
  },
  {
    "postcode": "50917",
    "state": "Kuala Lumpur"
  },
  {
    "postcode": "50918",
    "state": "Kuala Lumpur"
  },
  {
    "postcode": "50919",
    "state": "Kuala Lumpur"
  },
  {
    "postcode": "50920",
    "state": "Kuala Lumpur"
  },
  {
    "postcode": "50921",
    "state": "Kuala Lumpur"
  },
  {
    "postcode": "50922",
    "state": "Kuala Lumpur"
  },
  {
    "postcode": "50923",
    "state": "Kuala Lumpur"
  },
  {
    "postcode": "50924",
    "state": "Kuala Lumpur"
  },
  {
    "postcode": "50925",
    "state": "Kuala Lumpur"
  },
  {
    "postcode": "50926",
    "state": "Kuala Lumpur"
  },
  {
    "postcode": "50927",
    "state": "Kuala Lumpur"
  },
  {
    "postcode": "50928",
    "state": "Kuala Lumpur"
  },
  {
    "postcode": "50929",
    "state": "Kuala Lumpur"
  },
  {
    "postcode": "50930",
    "state": "Kuala Lumpur"
  },
  {
    "postcode": "50931",
    "state": "Kuala Lumpur"
  },
  {
    "postcode": "50932",
    "state": "Kuala Lumpur"
  },
  {
    "postcode": "50933",
    "state": "Kuala Lumpur"
  },
  {
    "postcode": "50934",
    "state": "Kuala Lumpur"
  },
  {
    "postcode": "50935",
    "state": "Kuala Lumpur"
  },
  {
    "postcode": "50936",
    "state": "Kuala Lumpur"
  },
  {
    "postcode": "50937",
    "state": "Kuala Lumpur"
  },
  {
    "postcode": "50938",
    "state": "Kuala Lumpur"
  },
  {
    "postcode": "50939",
    "state": "Kuala Lumpur"
  },
  {
    "postcode": "50940",
    "state": "Kuala Lumpur"
  },
  {
    "postcode": "50941",
    "state": "Kuala Lumpur"
  },
  {
    "postcode": "50942",
    "state": "Kuala Lumpur"
  },
  {
    "postcode": "50943",
    "state": "Kuala Lumpur"
  },
  {
    "postcode": "50944",
    "state": "Kuala Lumpur"
  },
  {
    "postcode": "50945",
    "state": "Kuala Lumpur"
  },
  {
    "postcode": "50946",
    "state": "Kuala Lumpur"
  },
  {
    "postcode": "50947",
    "state": "Kuala Lumpur"
  },
  {
    "postcode": "50948",
    "state": "Kuala Lumpur"
  },
  {
    "postcode": "50949",
    "state": "Kuala Lumpur"
  },
  {
    "postcode": "50950",
    "state": "Kuala Lumpur"
  },
  {
    "postcode": "50988",
    "state": "Kuala Lumpur"
  },
  {
    "postcode": "50989",
    "state": "Kuala Lumpur"
  },
  {
    "postcode": "50990",
    "state": "Kuala Lumpur"
  },
  {
    "postcode": "51000",
    "state": "Kuala Lumpur"
  },
  {
    "postcode": "51100",
    "state": "Kuala Lumpur"
  },
  {
    "postcode": "51200",
    "state": "Kuala Lumpur"
  },
  {
    "postcode": "51700",
    "state": "Kuala Lumpur"
  },
  {
    "postcode": "51990",
    "state": "Kuala Lumpur"
  },
  {
    "postcode": "52000",
    "state": "Kuala Lumpur"
  },
  {
    "postcode": "52100",
    "state": "Kuala Lumpur"
  },
  {
    "postcode": "52200",
    "state": "Kuala Lumpur"
  },
  {
    "postcode": "53000",
    "state": "Kuala Lumpur"
  },
  {
    "postcode": "53100",
    "state": "Kuala Lumpur"
  },
  {
    "postcode": "53100",
    "state": "Selangor"
  },
  {
    "postcode": "53200",
    "state": "Kuala Lumpur"
  },
  {
    "postcode": "53300",
    "state": "Kuala Lumpur"
  },
  {
    "postcode": "53700",
    "state": "Kuala Lumpur"
  },
  {
    "postcode": "53800",
    "state": "Kuala Lumpur"
  },
  {
    "postcode": "53990",
    "state": "Kuala Lumpur"
  },
  {
    "postcode": "54000",
    "state": "Kuala Lumpur"
  },
  {
    "postcode": "54100",
    "state": "Kuala Lumpur"
  },
  {
    "postcode": "54200",
    "state": "Kuala Lumpur"
  },
  {
    "postcode": "55000",
    "state": "Kuala Lumpur"
  },
  {
    "postcode": "55100",
    "state": "Kuala Lumpur"
  },
  {
    "postcode": "55100",
    "state": "Selangor"
  },
  {
    "postcode": "55200",
    "state": "Kuala Lumpur"
  },
  {
    "postcode": "55300",
    "state": "Kuala Lumpur"
  },
  {
    "postcode": "55700",
    "state": "Kuala Lumpur"
  },
  {
    "postcode": "55710",
    "state": "Kuala Lumpur"
  },
  {
    "postcode": "55720",
    "state": "Kuala Lumpur"
  },
  {
    "postcode": "55900",
    "state": "Kuala Lumpur"
  },
  {
    "postcode": "55902",
    "state": "Kuala Lumpur"
  },
  {
    "postcode": "55904",
    "state": "Kuala Lumpur"
  },
  {
    "postcode": "55906",
    "state": "Kuala Lumpur"
  },
  {
    "postcode": "55908",
    "state": "Kuala Lumpur"
  },
  {
    "postcode": "55910",
    "state": "Kuala Lumpur"
  },
  {
    "postcode": "55912",
    "state": "Kuala Lumpur"
  },
  {
    "postcode": "55914",
    "state": "Kuala Lumpur"
  },
  {
    "postcode": "55916",
    "state": "Kuala Lumpur"
  },
  {
    "postcode": "55918",
    "state": "Kuala Lumpur"
  },
  {
    "postcode": "55920",
    "state": "Kuala Lumpur"
  },
  {
    "postcode": "55922",
    "state": "Kuala Lumpur"
  },
  {
    "postcode": "55924",
    "state": "Kuala Lumpur"
  },
  {
    "postcode": "55926",
    "state": "Kuala Lumpur"
  },
  {
    "postcode": "55928",
    "state": "Kuala Lumpur"
  },
  {
    "postcode": "55930",
    "state": "Kuala Lumpur"
  },
  {
    "postcode": "55932",
    "state": "Kuala Lumpur"
  },
  {
    "postcode": "55934",
    "state": "Kuala Lumpur"
  },
  {
    "postcode": "55990",
    "state": "Kuala Lumpur"
  },
  {
    "postcode": "56000",
    "state": "Kuala Lumpur"
  },
  {
    "postcode": "56000",
    "state": "Selangor"
  },
  {
    "postcode": "56100",
    "state": "Kuala Lumpur"
  },
  {
    "postcode": "56100",
    "state": "Selangor"
  },
  {
    "postcode": "57000",
    "state": "Kuala Lumpur"
  },
  {
    "postcode": "57100",
    "state": "Kuala Lumpur"
  },
  {
    "postcode": "57700",
    "state": "Kuala Lumpur"
  },
  {
    "postcode": "57990",
    "state": "Kuala Lumpur"
  },
  {
    "postcode": "58000",
    "state": "Kuala Lumpur"
  },
  {
    "postcode": "58100",
    "state": "Kuala Lumpur"
  },
  {
    "postcode": "58200",
    "state": "Kuala Lumpur"
  },
  {
    "postcode": "58700",
    "state": "Kuala Lumpur"
  },
  {
    "postcode": "58990",
    "state": "Kuala Lumpur"
  },
  {
    "postcode": "59000",
    "state": "Kuala Lumpur"
  },
  {
    "postcode": "59100",
    "state": "Kuala Lumpur"
  },
  {
    "postcode": "59200",
    "state": "Kuala Lumpur"
  },
  {
    "postcode": "59700",
    "state": "Kuala Lumpur"
  },
  {
    "postcode": "59800",
    "state": "Kuala Lumpur"
  },
  {
    "postcode": "59990",
    "state": "Kuala Lumpur"
  },
  {
    "postcode": "60000",
    "state": "Kuala Lumpur"
  },
  {
    "postcode": "62000",
    "state": "Putrajaya"
  },
  {
    "postcode": "62007",
    "state": "Putrajaya"
  },
  {
    "postcode": "62050",
    "state": "Putrajaya"
  },
  {
    "postcode": "62100",
    "state": "Putrajaya"
  },
  {
    "postcode": "62150",
    "state": "Putrajaya"
  },
  {
    "postcode": "62200",
    "state": "Putrajaya"
  },
  {
    "postcode": "62250",
    "state": "Putrajaya"
  },
  {
    "postcode": "62300",
    "state": "Putrajaya"
  },
  {
    "postcode": "62502",
    "state": "Putrajaya"
  },
  {
    "postcode": "62504",
    "state": "Putrajaya"
  },
  {
    "postcode": "62505",
    "state": "Putrajaya"
  },
  {
    "postcode": "62506",
    "state": "Putrajaya"
  },
  {
    "postcode": "62510",
    "state": "Putrajaya"
  },
  {
    "postcode": "62512",
    "state": "Putrajaya"
  },
  {
    "postcode": "62514",
    "state": "Putrajaya"
  },
  {
    "postcode": "62516",
    "state": "Putrajaya"
  },
  {
    "postcode": "62517",
    "state": "Putrajaya"
  },
  {
    "postcode": "62518",
    "state": "Putrajaya"
  },
  {
    "postcode": "62519",
    "state": "Putrajaya"
  },
  {
    "postcode": "62520",
    "state": "Putrajaya"
  },
  {
    "postcode": "62522",
    "state": "Putrajaya"
  },
  {
    "postcode": "62524",
    "state": "Putrajaya"
  },
  {
    "postcode": "62526",
    "state": "Putrajaya"
  },
  {
    "postcode": "62527",
    "state": "Putrajaya"
  },
  {
    "postcode": "62530",
    "state": "Putrajaya"
  },
  {
    "postcode": "62532",
    "state": "Putrajaya"
  },
  {
    "postcode": "62536",
    "state": "Putrajaya"
  },
  {
    "postcode": "62540",
    "state": "Putrajaya"
  },
  {
    "postcode": "62542",
    "state": "Putrajaya"
  },
  {
    "postcode": "62546",
    "state": "Putrajaya"
  },
  {
    "postcode": "62550",
    "state": "Putrajaya"
  },
  {
    "postcode": "62551",
    "state": "Putrajaya"
  },
  {
    "postcode": "62570",
    "state": "Putrajaya"
  },
  {
    "postcode": "62574",
    "state": "Putrajaya"
  },
  {
    "postcode": "62576",
    "state": "Putrajaya"
  },
  {
    "postcode": "62582",
    "state": "Putrajaya"
  },
  {
    "postcode": "62584",
    "state": "Putrajaya"
  },
  {
    "postcode": "62590",
    "state": "Putrajaya"
  },
  {
    "postcode": "62592",
    "state": "Putrajaya"
  },
  {
    "postcode": "62596",
    "state": "Putrajaya"
  },
  {
    "postcode": "62602",
    "state": "Putrajaya"
  },
  {
    "postcode": "62604",
    "state": "Putrajaya"
  },
  {
    "postcode": "62605",
    "state": "Putrajaya"
  },
  {
    "postcode": "62606",
    "state": "Putrajaya"
  },
  {
    "postcode": "62616",
    "state": "Putrajaya"
  },
  {
    "postcode": "62618",
    "state": "Putrajaya"
  },
  {
    "postcode": "62620",
    "state": "Putrajaya"
  },
  {
    "postcode": "62623",
    "state": "Putrajaya"
  },
  {
    "postcode": "62624",
    "state": "Putrajaya"
  },
  {
    "postcode": "62628",
    "state": "Putrajaya"
  },
  {
    "postcode": "62630",
    "state": "Putrajaya"
  },
  {
    "postcode": "62632",
    "state": "Putrajaya"
  },
  {
    "postcode": "62648",
    "state": "Putrajaya"
  },
  {
    "postcode": "62652",
    "state": "Putrajaya"
  },
  {
    "postcode": "62654",
    "state": "Putrajaya"
  },
  {
    "postcode": "62662",
    "state": "Putrajaya"
  },
  {
    "postcode": "62668",
    "state": "Putrajaya"
  },
  {
    "postcode": "62670",
    "state": "Putrajaya"
  },
  {
    "postcode": "62674",
    "state": "Putrajaya"
  },
  {
    "postcode": "62675",
    "state": "Putrajaya"
  },
  {
    "postcode": "62676",
    "state": "Putrajaya"
  },
  {
    "postcode": "62677",
    "state": "Putrajaya"
  },
  {
    "postcode": "62686",
    "state": "Putrajaya"
  },
  {
    "postcode": "62692",
    "state": "Putrajaya"
  },
  {
    "postcode": "62988",
    "state": "Putrajaya"
  },
  {
    "postcode": "63000",
    "state": "Selangor"
  },
  {
    "postcode": "63100",
    "state": "Selangor"
  },
  {
    "postcode": "63200",
    "state": "Selangor"
  },
  {
    "postcode": "63300",
    "state": "Selangor"
  },
  {
    "postcode": "64000",
    "state": "Selangor"
  },
  {
    "postcode": "68000",
    "state": "Selangor"
  },
  {
    "postcode": "68000",
    "state": "Kuala Lumpur"
  },
  {
    "postcode": "68100",
    "state": "Selangor"
  },
  {
    "postcode": "68100",
    "state": "Kuala Lumpur"
  },
  {
    "postcode": "69000",
    "state": "Pahang"
  },
  {
    "postcode": "70000",
    "state": "Negeri Sembilan"
  },
  {
    "postcode": "70100",
    "state": "Negeri Sembilan"
  },
  {
    "postcode": "70200",
    "state": "Negeri Sembilan"
  },
  {
    "postcode": "70300",
    "state": "Negeri Sembilan"
  },
  {
    "postcode": "70400",
    "state": "Negeri Sembilan"
  },
  {
    "postcode": "70450",
    "state": "Negeri Sembilan"
  },
  {
    "postcode": "70500",
    "state": "Negeri Sembilan"
  },
  {
    "postcode": "70502",
    "state": "Negeri Sembilan"
  },
  {
    "postcode": "70503",
    "state": "Negeri Sembilan"
  },
  {
    "postcode": "70504",
    "state": "Negeri Sembilan"
  },
  {
    "postcode": "70505",
    "state": "Negeri Sembilan"
  },
  {
    "postcode": "70506",
    "state": "Negeri Sembilan"
  },
  {
    "postcode": "70508",
    "state": "Negeri Sembilan"
  },
  {
    "postcode": "70512",
    "state": "Negeri Sembilan"
  },
  {
    "postcode": "70516",
    "state": "Negeri Sembilan"
  },
  {
    "postcode": "70517",
    "state": "Negeri Sembilan"
  },
  {
    "postcode": "70518",
    "state": "Negeri Sembilan"
  },
  {
    "postcode": "70532",
    "state": "Negeri Sembilan"
  },
  {
    "postcode": "70534",
    "state": "Negeri Sembilan"
  },
  {
    "postcode": "70536",
    "state": "Negeri Sembilan"
  },
  {
    "postcode": "70540",
    "state": "Negeri Sembilan"
  },
  {
    "postcode": "70546",
    "state": "Negeri Sembilan"
  },
  {
    "postcode": "70548",
    "state": "Negeri Sembilan"
  },
  {
    "postcode": "70550",
    "state": "Negeri Sembilan"
  },
  {
    "postcode": "70551",
    "state": "Negeri Sembilan"
  },
  {
    "postcode": "70558",
    "state": "Negeri Sembilan"
  },
  {
    "postcode": "70560",
    "state": "Negeri Sembilan"
  },
  {
    "postcode": "70564",
    "state": "Negeri Sembilan"
  },
  {
    "postcode": "70570",
    "state": "Negeri Sembilan"
  },
  {
    "postcode": "70572",
    "state": "Negeri Sembilan"
  },
  {
    "postcode": "70576",
    "state": "Negeri Sembilan"
  },
  {
    "postcode": "70578",
    "state": "Negeri Sembilan"
  },
  {
    "postcode": "70582",
    "state": "Negeri Sembilan"
  },
  {
    "postcode": "70586",
    "state": "Negeri Sembilan"
  },
  {
    "postcode": "70590",
    "state": "Negeri Sembilan"
  },
  {
    "postcode": "70592",
    "state": "Negeri Sembilan"
  },
  {
    "postcode": "70594",
    "state": "Negeri Sembilan"
  },
  {
    "postcode": "70596",
    "state": "Negeri Sembilan"
  },
  {
    "postcode": "70600",
    "state": "Negeri Sembilan"
  },
  {
    "postcode": "70604",
    "state": "Negeri Sembilan"
  },
  {
    "postcode": "70606",
    "state": "Negeri Sembilan"
  },
  {
    "postcode": "70608",
    "state": "Negeri Sembilan"
  },
  {
    "postcode": "70609",
    "state": "Negeri Sembilan"
  },
  {
    "postcode": "70610",
    "state": "Negeri Sembilan"
  },
  {
    "postcode": "70620",
    "state": "Negeri Sembilan"
  },
  {
    "postcode": "70626",
    "state": "Negeri Sembilan"
  },
  {
    "postcode": "70628",
    "state": "Negeri Sembilan"
  },
  {
    "postcode": "70632",
    "state": "Negeri Sembilan"
  },
  {
    "postcode": "70634",
    "state": "Negeri Sembilan"
  },
  {
    "postcode": "70644",
    "state": "Negeri Sembilan"
  },
  {
    "postcode": "70646",
    "state": "Negeri Sembilan"
  },
  {
    "postcode": "70648",
    "state": "Negeri Sembilan"
  },
  {
    "postcode": "70658",
    "state": "Negeri Sembilan"
  },
  {
    "postcode": "70664",
    "state": "Negeri Sembilan"
  },
  {
    "postcode": "70670",
    "state": "Negeri Sembilan"
  },
  {
    "postcode": "70672",
    "state": "Negeri Sembilan"
  },
  {
    "postcode": "70673",
    "state": "Negeri Sembilan"
  },
  {
    "postcode": "70674",
    "state": "Negeri Sembilan"
  },
  {
    "postcode": "70676",
    "state": "Negeri Sembilan"
  },
  {
    "postcode": "70690",
    "state": "Negeri Sembilan"
  },
  {
    "postcode": "70700",
    "state": "Negeri Sembilan"
  },
  {
    "postcode": "70710",
    "state": "Negeri Sembilan"
  },
  {
    "postcode": "70720",
    "state": "Negeri Sembilan"
  },
  {
    "postcode": "70730",
    "state": "Negeri Sembilan"
  },
  {
    "postcode": "70740",
    "state": "Negeri Sembilan"
  },
  {
    "postcode": "70750",
    "state": "Negeri Sembilan"
  },
  {
    "postcode": "70990",
    "state": "Negeri Sembilan"
  },
  {
    "postcode": "71000",
    "state": "Negeri Sembilan"
  },
  {
    "postcode": "71007",
    "state": "Negeri Sembilan"
  },
  {
    "postcode": "71009",
    "state": "Negeri Sembilan"
  },
  {
    "postcode": "71010",
    "state": "Negeri Sembilan"
  },
  {
    "postcode": "71050",
    "state": "Negeri Sembilan"
  },
  {
    "postcode": "71059",
    "state": "Negeri Sembilan"
  },
  {
    "postcode": "71100",
    "state": "Negeri Sembilan"
  },
  {
    "postcode": "71109",
    "state": "Negeri Sembilan"
  },
  {
    "postcode": "71150",
    "state": "Negeri Sembilan"
  },
  {
    "postcode": "71159",
    "state": "Negeri Sembilan"
  },
  {
    "postcode": "71200",
    "state": "Negeri Sembilan"
  },
  {
    "postcode": "71209",
    "state": "Negeri Sembilan"
  },
  {
    "postcode": "71250",
    "state": "Negeri Sembilan"
  },
  {
    "postcode": "71259",
    "state": "Negeri Sembilan"
  },
  {
    "postcode": "71300",
    "state": "Negeri Sembilan"
  },
  {
    "postcode": "71309",
    "state": "Negeri Sembilan"
  },
  {
    "postcode": "71350",
    "state": "Negeri Sembilan"
  },
  {
    "postcode": "71359",
    "state": "Negeri Sembilan"
  },
  {
    "postcode": "71400",
    "state": "Negeri Sembilan"
  },
  {
    "postcode": "71409",
    "state": "Negeri Sembilan"
  },
  {
    "postcode": "71450",
    "state": "Negeri Sembilan"
  },
  {
    "postcode": "71459",
    "state": "Negeri Sembilan"
  },
  {
    "postcode": "71500",
    "state": "Negeri Sembilan"
  },
  {
    "postcode": "71509",
    "state": "Negeri Sembilan"
  },
  {
    "postcode": "71550",
    "state": "Negeri Sembilan"
  },
  {
    "postcode": "71559",
    "state": "Negeri Sembilan"
  },
  {
    "postcode": "71600",
    "state": "Negeri Sembilan"
  },
  {
    "postcode": "71609",
    "state": "Negeri Sembilan"
  },
  {
    "postcode": "71650",
    "state": "Negeri Sembilan"
  },
  {
    "postcode": "71659",
    "state": "Negeri Sembilan"
  },
  {
    "postcode": "71700",
    "state": "Negeri Sembilan"
  },
  {
    "postcode": "71707",
    "state": "Negeri Sembilan"
  },
  {
    "postcode": "71709",
    "state": "Negeri Sembilan"
  },
  {
    "postcode": "71750",
    "state": "Negeri Sembilan"
  },
  {
    "postcode": "71759",
    "state": "Negeri Sembilan"
  },
  {
    "postcode": "71760",
    "state": "Negeri Sembilan"
  },
  {
    "postcode": "71770",
    "state": "Negeri Sembilan"
  },
  {
    "postcode": "71800",
    "state": "Negeri Sembilan"
  },
  {
    "postcode": "71807",
    "state": "Negeri Sembilan"
  },
  {
    "postcode": "71809",
    "state": "Negeri Sembilan"
  },
  {
    "postcode": "71900",
    "state": "Negeri Sembilan"
  },
  {
    "postcode": "71907",
    "state": "Negeri Sembilan"
  },
  {
    "postcode": "71909",
    "state": "Negeri Sembilan"
  },
  {
    "postcode": "71950",
    "state": "Negeri Sembilan"
  },
  {
    "postcode": "71960",
    "state": "Negeri Sembilan"
  },
  {
    "postcode": "72000",
    "state": "Negeri Sembilan"
  },
  {
    "postcode": "72007",
    "state": "Negeri Sembilan"
  },
  {
    "postcode": "72009",
    "state": "Negeri Sembilan"
  },
  {
    "postcode": "72100",
    "state": "Negeri Sembilan"
  },
  {
    "postcode": "72107",
    "state": "Negeri Sembilan"
  },
  {
    "postcode": "72109",
    "state": "Negeri Sembilan"
  },
  {
    "postcode": "72120",
    "state": "Negeri Sembilan"
  },
  {
    "postcode": "72127",
    "state": "Negeri Sembilan"
  },
  {
    "postcode": "72129",
    "state": "Negeri Sembilan"
  },
  {
    "postcode": "72200",
    "state": "Negeri Sembilan"
  },
  {
    "postcode": "72207",
    "state": "Negeri Sembilan"
  },
  {
    "postcode": "72209",
    "state": "Negeri Sembilan"
  },
  {
    "postcode": "72300",
    "state": "Negeri Sembilan"
  },
  {
    "postcode": "72307",
    "state": "Negeri Sembilan"
  },
  {
    "postcode": "72309",
    "state": "Negeri Sembilan"
  },
  {
    "postcode": "72400",
    "state": "Negeri Sembilan"
  },
  {
    "postcode": "72409",
    "state": "Negeri Sembilan"
  },
  {
    "postcode": "72500",
    "state": "Negeri Sembilan"
  },
  {
    "postcode": "72507",
    "state": "Negeri Sembilan"
  },
  {
    "postcode": "72509",
    "state": "Negeri Sembilan"
  },
  {
    "postcode": "73000",
    "state": "Negeri Sembilan"
  },
  {
    "postcode": "73007",
    "state": "Negeri Sembilan"
  },
  {
    "postcode": "73009",
    "state": "Negeri Sembilan"
  },
  {
    "postcode": "73100",
    "state": "Negeri Sembilan"
  },
  {
    "postcode": "73109",
    "state": "Negeri Sembilan"
  },
  {
    "postcode": "73200",
    "state": "Negeri Sembilan"
  },
  {
    "postcode": "73207",
    "state": "Negeri Sembilan"
  },
  {
    "postcode": "73209",
    "state": "Negeri Sembilan"
  },
  {
    "postcode": "73300",
    "state": "Negeri Sembilan"
  },
  {
    "postcode": "73309",
    "state": "Negeri Sembilan"
  },
  {
    "postcode": "73400",
    "state": "Negeri Sembilan"
  },
  {
    "postcode": "73409",
    "state": "Negeri Sembilan"
  },
  {
    "postcode": "73420",
    "state": "Negeri Sembilan"
  },
  {
    "postcode": "73430",
    "state": "Negeri Sembilan"
  },
  {
    "postcode": "73440",
    "state": "Negeri Sembilan"
  },
  {
    "postcode": "73450",
    "state": "Negeri Sembilan"
  },
  {
    "postcode": "73460",
    "state": "Negeri Sembilan"
  },
  {
    "postcode": "73470",
    "state": "Negeri Sembilan"
  },
  {
    "postcode": "73480",
    "state": "Negeri Sembilan"
  },
  {
    "postcode": "73500",
    "state": "Negeri Sembilan"
  },
  {
    "postcode": "73507",
    "state": "Negeri Sembilan"
  },
  {
    "postcode": "73509",
    "state": "Negeri Sembilan"
  },
  {
    "postcode": "75000",
    "state": "Melaka"
  },
  {
    "postcode": "75050",
    "state": "Melaka"
  },
  {
    "postcode": "75100",
    "state": "Melaka"
  },
  {
    "postcode": "75150",
    "state": "Melaka"
  },
  {
    "postcode": "75200",
    "state": "Melaka"
  },
  {
    "postcode": "75250",
    "state": "Melaka"
  },
  {
    "postcode": "75260",
    "state": "Melaka"
  },
  {
    "postcode": "75300",
    "state": "Melaka"
  },
  {
    "postcode": "75350",
    "state": "Melaka"
  },
  {
    "postcode": "75400",
    "state": "Melaka"
  },
  {
    "postcode": "75450",
    "state": "Melaka"
  },
  {
    "postcode": "75460",
    "state": "Melaka"
  },
  {
    "postcode": "75500",
    "state": "Melaka"
  },
  {
    "postcode": "75502",
    "state": "Melaka"
  },
  {
    "postcode": "75503",
    "state": "Melaka"
  },
  {
    "postcode": "75504",
    "state": "Melaka"
  },
  {
    "postcode": "75505",
    "state": "Melaka"
  },
  {
    "postcode": "75506",
    "state": "Melaka"
  },
  {
    "postcode": "75508",
    "state": "Melaka"
  },
  {
    "postcode": "75510",
    "state": "Melaka"
  },
  {
    "postcode": "75512",
    "state": "Melaka"
  },
  {
    "postcode": "75514",
    "state": "Melaka"
  },
  {
    "postcode": "75516",
    "state": "Melaka"
  },
  {
    "postcode": "75517",
    "state": "Melaka"
  },
  {
    "postcode": "75518",
    "state": "Melaka"
  },
  {
    "postcode": "75519",
    "state": "Melaka"
  },
  {
    "postcode": "75532",
    "state": "Melaka"
  },
  {
    "postcode": "75536",
    "state": "Melaka"
  },
  {
    "postcode": "75538",
    "state": "Melaka"
  },
  {
    "postcode": "75540",
    "state": "Melaka"
  },
  {
    "postcode": "75542",
    "state": "Melaka"
  },
  {
    "postcode": "75546",
    "state": "Melaka"
  },
  {
    "postcode": "75550",
    "state": "Melaka"
  },
  {
    "postcode": "75551",
    "state": "Melaka"
  },
  {
    "postcode": "75552",
    "state": "Melaka"
  },
  {
    "postcode": "75560",
    "state": "Melaka"
  },
  {
    "postcode": "75564",
    "state": "Melaka"
  },
  {
    "postcode": "75566",
    "state": "Melaka"
  },
  {
    "postcode": "75570",
    "state": "Melaka"
  },
  {
    "postcode": "75572",
    "state": "Melaka"
  },
  {
    "postcode": "75576",
    "state": "Melaka"
  },
  {
    "postcode": "75578",
    "state": "Melaka"
  },
  {
    "postcode": "75582",
    "state": "Melaka"
  },
  {
    "postcode": "75584",
    "state": "Melaka"
  },
  {
    "postcode": "75586",
    "state": "Melaka"
  },
  {
    "postcode": "75590",
    "state": "Melaka"
  },
  {
    "postcode": "75592",
    "state": "Melaka"
  },
  {
    "postcode": "75594",
    "state": "Melaka"
  },
  {
    "postcode": "75596",
    "state": "Melaka"
  },
  {
    "postcode": "75600",
    "state": "Melaka"
  },
  {
    "postcode": "75604",
    "state": "Melaka"
  },
  {
    "postcode": "75606",
    "state": "Melaka"
  },
  {
    "postcode": "75608",
    "state": "Melaka"
  },
  {
    "postcode": "75609",
    "state": "Melaka"
  },
  {
    "postcode": "75610",
    "state": "Melaka"
  },
  {
    "postcode": "75612",
    "state": "Melaka"
  },
  {
    "postcode": "75618",
    "state": "Melaka"
  },
  {
    "postcode": "75620",
    "state": "Melaka"
  },
  {
    "postcode": "75622",
    "state": "Melaka"
  },
  {
    "postcode": "75626",
    "state": "Melaka"
  },
  {
    "postcode": "75628",
    "state": "Melaka"
  },
  {
    "postcode": "75630",
    "state": "Melaka"
  },
  {
    "postcode": "75632",
    "state": "Melaka"
  },
  {
    "postcode": "75646",
    "state": "Melaka"
  },
  {
    "postcode": "75648",
    "state": "Melaka"
  },
  {
    "postcode": "75662",
    "state": "Melaka"
  },
  {
    "postcode": "75670",
    "state": "Melaka"
  },
  {
    "postcode": "75672",
    "state": "Melaka"
  },
  {
    "postcode": "75673",
    "state": "Melaka"
  },
  {
    "postcode": "75674",
    "state": "Melaka"
  },
  {
    "postcode": "75676",
    "state": "Melaka"
  },
  {
    "postcode": "75690",
    "state": "Melaka"
  },
  {
    "postcode": "75700",
    "state": "Melaka"
  },
  {
    "postcode": "75710",
    "state": "Melaka"
  },
  {
    "postcode": "75720",
    "state": "Melaka"
  },
  {
    "postcode": "75730",
    "state": "Melaka"
  },
  {
    "postcode": "75740",
    "state": "Melaka"
  },
  {
    "postcode": "75750",
    "state": "Melaka"
  },
  {
    "postcode": "75760",
    "state": "Melaka"
  },
  {
    "postcode": "75900",
    "state": "Melaka"
  },
  {
    "postcode": "75902",
    "state": "Melaka"
  },
  {
    "postcode": "75904",
    "state": "Melaka"
  },
  {
    "postcode": "75906",
    "state": "Melaka"
  },
  {
    "postcode": "75908",
    "state": "Melaka"
  },
  {
    "postcode": "75910",
    "state": "Melaka"
  },
  {
    "postcode": "75912",
    "state": "Melaka"
  },
  {
    "postcode": "75914",
    "state": "Melaka"
  },
  {
    "postcode": "75916",
    "state": "Melaka"
  },
  {
    "postcode": "75918",
    "state": "Melaka"
  },
  {
    "postcode": "75990",
    "state": "Melaka"
  },
  {
    "postcode": "76100",
    "state": "Melaka"
  },
  {
    "postcode": "76109",
    "state": "Melaka"
  },
  {
    "postcode": "76200",
    "state": "Melaka"
  },
  {
    "postcode": "76300",
    "state": "Melaka"
  },
  {
    "postcode": "76400",
    "state": "Melaka"
  },
  {
    "postcode": "76409",
    "state": "Melaka"
  },
  {
    "postcode": "76450",
    "state": "Melaka"
  },
  {
    "postcode": "77000",
    "state": "Melaka"
  },
  {
    "postcode": "77007",
    "state": "Melaka"
  },
  {
    "postcode": "77008",
    "state": "Melaka"
  },
  {
    "postcode": "77009",
    "state": "Melaka"
  },
  {
    "postcode": "77100",
    "state": "Melaka"
  },
  {
    "postcode": "77109",
    "state": "Melaka"
  },
  {
    "postcode": "77200",
    "state": "Melaka"
  },
  {
    "postcode": "77300",
    "state": "Melaka"
  },
  {
    "postcode": "77309",
    "state": "Melaka"
  },
  {
    "postcode": "77400",
    "state": "Melaka"
  },
  {
    "postcode": "77409",
    "state": "Melaka"
  },
  {
    "postcode": "77500",
    "state": "Melaka"
  },
  {
    "postcode": "78000",
    "state": "Melaka"
  },
  {
    "postcode": "78009",
    "state": "Melaka"
  },
  {
    "postcode": "78100",
    "state": "Melaka"
  },
  {
    "postcode": "78200",
    "state": "Melaka"
  },
  {
    "postcode": "78300",
    "state": "Melaka"
  },
  {
    "postcode": "78307",
    "state": "Melaka"
  },
  {
    "postcode": "78309",
    "state": "Melaka"
  },
  {
    "postcode": "79000",
    "state": "Johor"
  },
  {
    "postcode": "79100",
    "state": "Johor"
  },
  {
    "postcode": "79150",
    "state": "Johor"
  },
  {
    "postcode": "79200",
    "state": "Johor"
  },
  {
    "postcode": "79250",
    "state": "Johor"
  },
  {
    "postcode": "79502",
    "state": "Johor"
  },
  {
    "postcode": "79503",
    "state": "Johor"
  },
  {
    "postcode": "79504",
    "state": "Johor"
  },
  {
    "postcode": "79505",
    "state": "Johor"
  },
  {
    "postcode": "79511",
    "state": "Johor"
  },
  {
    "postcode": "79513",
    "state": "Johor"
  },
  {
    "postcode": "79514",
    "state": "Johor"
  },
  {
    "postcode": "79517",
    "state": "Johor"
  },
  {
    "postcode": "79518",
    "state": "Johor"
  },
  {
    "postcode": "79520",
    "state": "Johor"
  },
  {
    "postcode": "79521",
    "state": "Johor"
  },
  {
    "postcode": "79523",
    "state": "Johor"
  },
  {
    "postcode": "79532",
    "state": "Johor"
  },
  {
    "postcode": "79538",
    "state": "Johor"
  },
  {
    "postcode": "79540",
    "state": "Johor"
  },
  {
    "postcode": "79546",
    "state": "Johor"
  },
  {
    "postcode": "79548",
    "state": "Johor"
  },
  {
    "postcode": "79550",
    "state": "Johor"
  },
  {
    "postcode": "79552",
    "state": "Johor"
  },
  {
    "postcode": "79555",
    "state": "Johor"
  },
  {
    "postcode": "79570",
    "state": "Johor"
  },
  {
    "postcode": "79575",
    "state": "Johor"
  },
  {
    "postcode": "79576",
    "state": "Johor"
  },
  {
    "postcode": "79592",
    "state": "Johor"
  },
  {
    "postcode": "79601",
    "state": "Johor"
  },
  {
    "postcode": "79603",
    "state": "Johor"
  },
  {
    "postcode": "79605",
    "state": "Johor"
  },
  {
    "postcode": "79606",
    "state": "Johor"
  },
  {
    "postcode": "79612",
    "state": "Johor"
  },
  {
    "postcode": "79626",
    "state": "Johor"
  },
  {
    "postcode": "79630",
    "state": "Johor"
  },
  {
    "postcode": "79632",
    "state": "Johor"
  },
  {
    "postcode": "79646",
    "state": "Johor"
  },
  {
    "postcode": "79658",
    "state": "Johor"
  },
  {
    "postcode": "79660",
    "state": "Johor"
  },
  {
    "postcode": "79680",
    "state": "Johor"
  },
  {
    "postcode": "79681",
    "state": "Johor"
  },
  {
    "postcode": "79683",
    "state": "Johor"
  },
  {
    "postcode": "80000",
    "state": "Johor"
  },
  {
    "postcode": "80050",
    "state": "Johor"
  },
  {
    "postcode": "80100",
    "state": "Johor"
  },
  {
    "postcode": "80150",
    "state": "Johor"
  },
  {
    "postcode": "80200",
    "state": "Johor"
  },
  {
    "postcode": "80250",
    "state": "Johor"
  },
  {
    "postcode": "80300",
    "state": "Johor"
  },
  {
    "postcode": "80350",
    "state": "Johor"
  },
  {
    "postcode": "80400",
    "state": "Johor"
  },
  {
    "postcode": "80500",
    "state": "Johor"
  },
  {
    "postcode": "80506",
    "state": "Johor"
  },
  {
    "postcode": "80508",
    "state": "Johor"
  },
  {
    "postcode": "80516",
    "state": "Johor"
  },
  {
    "postcode": "80519",
    "state": "Johor"
  },
  {
    "postcode": "80534",
    "state": "Johor"
  },
  {
    "postcode": "80536",
    "state": "Johor"
  },
  {
    "postcode": "80542",
    "state": "Johor"
  },
  {
    "postcode": "80546",
    "state": "Johor"
  },
  {
    "postcode": "80558",
    "state": "Johor"
  },
  {
    "postcode": "80560",
    "state": "Johor"
  },
  {
    "postcode": "80564",
    "state": "Johor"
  },
  {
    "postcode": "80568",
    "state": "Johor"
  },
  {
    "postcode": "80578",
    "state": "Johor"
  },
  {
    "postcode": "80584",
    "state": "Johor"
  },
  {
    "postcode": "80586",
    "state": "Johor"
  },
  {
    "postcode": "80590",
    "state": "Johor"
  },
  {
    "postcode": "80592",
    "state": "Johor"
  },
  {
    "postcode": "80594",
    "state": "Johor"
  },
  {
    "postcode": "80596",
    "state": "Johor"
  },
  {
    "postcode": "80600",
    "state": "Johor"
  },
  {
    "postcode": "80604",
    "state": "Johor"
  },
  {
    "postcode": "80608",
    "state": "Johor"
  },
  {
    "postcode": "80620",
    "state": "Johor"
  },
  {
    "postcode": "80622",
    "state": "Johor"
  },
  {
    "postcode": "80628",
    "state": "Johor"
  },
  {
    "postcode": "80644",
    "state": "Johor"
  },
  {
    "postcode": "80648",
    "state": "Johor"
  },
  {
    "postcode": "80662",
    "state": "Johor"
  },
  {
    "postcode": "80664",
    "state": "Johor"
  },
  {
    "postcode": "80668",
    "state": "Johor"
  },
  {
    "postcode": "80670",
    "state": "Johor"
  },
  {
    "postcode": "80672",
    "state": "Johor"
  },
  {
    "postcode": "80673",
    "state": "Johor"
  },
  {
    "postcode": "80676",
    "state": "Johor"
  },
  {
    "postcode": "80700",
    "state": "Johor"
  },
  {
    "postcode": "80710",
    "state": "Johor"
  },
  {
    "postcode": "80720",
    "state": "Johor"
  },
  {
    "postcode": "80730",
    "state": "Johor"
  },
  {
    "postcode": "80900",
    "state": "Johor"
  },
  {
    "postcode": "80902",
    "state": "Johor"
  },
  {
    "postcode": "80904",
    "state": "Johor"
  },
  {
    "postcode": "80906",
    "state": "Johor"
  },
  {
    "postcode": "80908",
    "state": "Johor"
  },
  {
    "postcode": "80988",
    "state": "Johor"
  },
  {
    "postcode": "80990",
    "state": "Johor"
  },
  {
    "postcode": "81000",
    "state": "Johor"
  },
  {
    "postcode": "81100",
    "state": "Johor"
  },
  {
    "postcode": "81200",
    "state": "Johor"
  },
  {
    "postcode": "81300",
    "state": "Johor"
  },
  {
    "postcode": "81310",
    "state": "Johor"
  },
  {
    "postcode": "81400",
    "state": "Johor"
  },
  {
    "postcode": "81440",
    "state": "Johor"
  },
  {
    "postcode": "81450",
    "state": "Johor"
  },
  {
    "postcode": "81500",
    "state": "Johor"
  },
  {
    "postcode": "81550",
    "state": "Johor"
  },
  {
    "postcode": "81600",
    "state": "Johor"
  },
  {
    "postcode": "81700",
    "state": "Johor"
  },
  {
    "postcode": "81750",
    "state": "Johor"
  },
  {
    "postcode": "81800",
    "state": "Johor"
  },
  {
    "postcode": "81850",
    "state": "Johor"
  },
  {
    "postcode": "81900",
    "state": "Johor"
  },
  {
    "postcode": "81920",
    "state": "Johor"
  },
  {
    "postcode": "81930",
    "state": "Johor"
  },
  {
    "postcode": "82000",
    "state": "Johor"
  },
  {
    "postcode": "82100",
    "state": "Johor"
  },
  {
    "postcode": "82200",
    "state": "Johor"
  },
  {
    "postcode": "82300",
    "state": "Johor"
  },
  {
    "postcode": "83000",
    "state": "Johor"
  },
  {
    "postcode": "83100",
    "state": "Johor"
  },
  {
    "postcode": "83200",
    "state": "Johor"
  },
  {
    "postcode": "83300",
    "state": "Johor"
  },
  {
    "postcode": "83400",
    "state": "Johor"
  },
  {
    "postcode": "83500",
    "state": "Johor"
  },
  {
    "postcode": "83600",
    "state": "Johor"
  },
  {
    "postcode": "83700",
    "state": "Johor"
  },
  {
    "postcode": "84000",
    "state": "Johor"
  },
  {
    "postcode": "84150",
    "state": "Johor"
  },
  {
    "postcode": "84200",
    "state": "Johor"
  },
  {
    "postcode": "84300",
    "state": "Johor"
  },
  {
    "postcode": "84400",
    "state": "Johor"
  },
  {
    "postcode": "84500",
    "state": "Johor"
  },
  {
    "postcode": "84600",
    "state": "Johor"
  },
  {
    "postcode": "84700",
    "state": "Johor"
  },
  {
    "postcode": "84800",
    "state": "Johor"
  },
  {
    "postcode": "84900",
    "state": "Johor"
  },
  {
    "postcode": "85000",
    "state": "Johor"
  },
  {
    "postcode": "85100",
    "state": "Johor"
  },
  {
    "postcode": "85200",
    "state": "Johor"
  },
  {
    "postcode": "85300",
    "state": "Johor"
  },
  {
    "postcode": "85400",
    "state": "Johor"
  },
  {
    "postcode": "86000",
    "state": "Johor"
  },
  {
    "postcode": "86100",
    "state": "Johor"
  },
  {
    "postcode": "86200",
    "state": "Johor"
  },
  {
    "postcode": "86300",
    "state": "Johor"
  },
  {
    "postcode": "86400",
    "state": "Johor"
  },
  {
    "postcode": "86500",
    "state": "Johor"
  },
  {
    "postcode": "86600",
    "state": "Johor"
  },
  {
    "postcode": "86700",
    "state": "Johor"
  },
  {
    "postcode": "86800",
    "state": "Johor"
  },
  {
    "postcode": "86810",
    "state": "Johor"
  },
  {
    "postcode": "86900",
    "state": "Johor"
  },
  {
    "postcode": "87000",
    "state": "Labuan"
  },
  {
    "postcode": "87010",
    "state": "Labuan"
  },
  {
    "postcode": "87011",
    "state": "Labuan"
  },
  {
    "postcode": "87012",
    "state": "Labuan"
  },
  {
    "postcode": "87013",
    "state": "Labuan"
  },
  {
    "postcode": "87014",
    "state": "Labuan"
  },
  {
    "postcode": "87015",
    "state": "Labuan"
  },
  {
    "postcode": "87016",
    "state": "Labuan"
  },
  {
    "postcode": "87017",
    "state": "Labuan"
  },
  {
    "postcode": "87018",
    "state": "Labuan"
  },
  {
    "postcode": "87019",
    "state": "Labuan"
  },
  {
    "postcode": "87020",
    "state": "Labuan"
  },
  {
    "postcode": "87021",
    "state": "Labuan"
  },
  {
    "postcode": "87022",
    "state": "Labuan"
  },
  {
    "postcode": "87023",
    "state": "Labuan"
  },
  {
    "postcode": "87024",
    "state": "Labuan"
  },
  {
    "postcode": "87025",
    "state": "Labuan"
  },
  {
    "postcode": "87026",
    "state": "Labuan"
  },
  {
    "postcode": "87027",
    "state": "Labuan"
  },
  {
    "postcode": "87028",
    "state": "Labuan"
  },
  {
    "postcode": "87029",
    "state": "Labuan"
  },
  {
    "postcode": "87030",
    "state": "Labuan"
  },
  {
    "postcode": "87031",
    "state": "Labuan"
  },
  {
    "postcode": "87032",
    "state": "Labuan"
  },
  {
    "postcode": "87033",
    "state": "Labuan"
  },
  {
    "postcode": "88000",
    "state": "Sabah"
  },
  {
    "postcode": "88100",
    "state": "Sabah"
  },
  {
    "postcode": "88200",
    "state": "Sabah"
  },
  {
    "postcode": "88300",
    "state": "Sabah"
  },
  {
    "postcode": "88400",
    "state": "Sabah"
  },
  {
    "postcode": "88450",
    "state": "Sabah"
  },
  {
    "postcode": "88460",
    "state": "Sabah"
  },
  {
    "postcode": "88500",
    "state": "Sabah"
  },
  {
    "postcode": "88502",
    "state": "Sabah"
  },
  {
    "postcode": "88504",
    "state": "Sabah"
  },
  {
    "postcode": "88505",
    "state": "Sabah"
  },
  {
    "postcode": "88506",
    "state": "Sabah"
  },
  {
    "postcode": "88508",
    "state": "Sabah"
  },
  {
    "postcode": "88510",
    "state": "Sabah"
  },
  {
    "postcode": "88512",
    "state": "Sabah"
  },
  {
    "postcode": "88514",
    "state": "Sabah"
  },
  {
    "postcode": "88516",
    "state": "Sabah"
  },
  {
    "postcode": "88518",
    "state": "Sabah"
  },
  {
    "postcode": "88520",
    "state": "Sabah"
  },
  {
    "postcode": "88526",
    "state": "Sabah"
  },
  {
    "postcode": "88527",
    "state": "Sabah"
  },
  {
    "postcode": "88532",
    "state": "Sabah"
  },
  {
    "postcode": "88534",
    "state": "Sabah"
  },
  {
    "postcode": "88538",
    "state": "Sabah"
  },
  {
    "postcode": "88540",
    "state": "Sabah"
  },
  {
    "postcode": "88546",
    "state": "Sabah"
  },
  {
    "postcode": "88550",
    "state": "Sabah"
  },
  {
    "postcode": "88551",
    "state": "Sabah"
  },
  {
    "postcode": "88552",
    "state": "Sabah"
  },
  {
    "postcode": "88554",
    "state": "Sabah"
  },
  {
    "postcode": "88556",
    "state": "Sabah"
  },
  {
    "postcode": "88558",
    "state": "Sabah"
  },
  {
    "postcode": "88560",
    "state": "Sabah"
  },
  {
    "postcode": "88562",
    "state": "Sabah"
  },
  {
    "postcode": "88564",
    "state": "Sabah"
  },
  {
    "postcode": "88566",
    "state": "Sabah"
  },
  {
    "postcode": "88568",
    "state": "Sabah"
  },
  {
    "postcode": "88570",
    "state": "Sabah"
  },
  {
    "postcode": "88572",
    "state": "Sabah"
  },
  {
    "postcode": "88576",
    "state": "Sabah"
  },
  {
    "postcode": "88580",
    "state": "Sabah"
  },
  {
    "postcode": "88582",
    "state": "Sabah"
  },
  {
    "postcode": "88586",
    "state": "Sabah"
  },
  {
    "postcode": "88590",
    "state": "Sabah"
  },
  {
    "postcode": "88592",
    "state": "Sabah"
  },
  {
    "postcode": "88594",
    "state": "Sabah"
  },
  {
    "postcode": "88596",
    "state": "Sabah"
  },
  {
    "postcode": "88598",
    "state": "Sabah"
  },
  {
    "postcode": "88600",
    "state": "Sabah"
  },
  {
    "postcode": "88602",
    "state": "Sabah"
  },
  {
    "postcode": "88604",
    "state": "Sabah"
  },
  {
    "postcode": "88606",
    "state": "Sabah"
  },
  {
    "postcode": "88608",
    "state": "Sabah"
  },
  {
    "postcode": "88609",
    "state": "Sabah"
  },
  {
    "postcode": "88610",
    "state": "Sabah"
  },
  {
    "postcode": "88612",
    "state": "Sabah"
  },
  {
    "postcode": "88614",
    "state": "Sabah"
  },
  {
    "postcode": "88617",
    "state": "Sabah"
  },
  {
    "postcode": "88618",
    "state": "Sabah"
  },
  {
    "postcode": "88620",
    "state": "Sabah"
  },
  {
    "postcode": "88621",
    "state": "Sabah"
  },
  {
    "postcode": "88622",
    "state": "Sabah"
  },
  {
    "postcode": "88624",
    "state": "Sabah"
  },
  {
    "postcode": "88626",
    "state": "Sabah"
  },
  {
    "postcode": "88628",
    "state": "Sabah"
  },
  {
    "postcode": "88630",
    "state": "Sabah"
  },
  {
    "postcode": "88632",
    "state": "Sabah"
  },
  {
    "postcode": "88634",
    "state": "Sabah"
  },
  {
    "postcode": "88644",
    "state": "Sabah"
  },
  {
    "postcode": "88646",
    "state": "Sabah"
  },
  {
    "postcode": "88648",
    "state": "Sabah"
  },
  {
    "postcode": "88656",
    "state": "Sabah"
  },
  {
    "postcode": "88658",
    "state": "Sabah"
  },
  {
    "postcode": "88660",
    "state": "Sabah"
  },
  {
    "postcode": "88661",
    "state": "Sabah"
  },
  {
    "postcode": "88662",
    "state": "Sabah"
  },
  {
    "postcode": "88670",
    "state": "Sabah"
  },
  {
    "postcode": "88672",
    "state": "Sabah"
  },
  {
    "postcode": "88673",
    "state": "Sabah"
  },
  {
    "postcode": "88675",
    "state": "Sabah"
  },
  {
    "postcode": "88676",
    "state": "Sabah"
  },
  {
    "postcode": "88680",
    "state": "Sabah"
  },
  {
    "postcode": "88690",
    "state": "Sabah"
  },
  {
    "postcode": "88700",
    "state": "Sabah"
  },
  {
    "postcode": "88721",
    "state": "Sabah"
  },
  {
    "postcode": "88722",
    "state": "Sabah"
  },
  {
    "postcode": "88723",
    "state": "Sabah"
  },
  {
    "postcode": "88724",
    "state": "Sabah"
  },
  {
    "postcode": "88725",
    "state": "Sabah"
  },
  {
    "postcode": "88757",
    "state": "Sabah"
  },
  {
    "postcode": "88758",
    "state": "Sabah"
  },
  {
    "postcode": "88759",
    "state": "Sabah"
  },
  {
    "postcode": "88760",
    "state": "Sabah"
  },
  {
    "postcode": "88761",
    "state": "Sabah"
  },
  {
    "postcode": "88762",
    "state": "Sabah"
  },
  {
    "postcode": "88763",
    "state": "Sabah"
  },
  {
    "postcode": "88764",
    "state": "Sabah"
  },
  {
    "postcode": "88765",
    "state": "Sabah"
  },
  {
    "postcode": "88766",
    "state": "Sabah"
  },
  {
    "postcode": "88767",
    "state": "Sabah"
  },
  {
    "postcode": "88768",
    "state": "Sabah"
  },
  {
    "postcode": "88769",
    "state": "Sabah"
  },
  {
    "postcode": "88770",
    "state": "Sabah"
  },
  {
    "postcode": "88771",
    "state": "Sabah"
  },
  {
    "postcode": "88772",
    "state": "Sabah"
  },
  {
    "postcode": "88773",
    "state": "Sabah"
  },
  {
    "postcode": "88774",
    "state": "Sabah"
  },
  {
    "postcode": "88775",
    "state": "Sabah"
  },
  {
    "postcode": "88776",
    "state": "Sabah"
  },
  {
    "postcode": "88777",
    "state": "Sabah"
  },
  {
    "postcode": "88778",
    "state": "Sabah"
  },
  {
    "postcode": "88779",
    "state": "Sabah"
  },
  {
    "postcode": "88780",
    "state": "Sabah"
  },
  {
    "postcode": "88781",
    "state": "Sabah"
  },
  {
    "postcode": "88782",
    "state": "Sabah"
  },
  {
    "postcode": "88783",
    "state": "Sabah"
  },
  {
    "postcode": "88784",
    "state": "Sabah"
  },
  {
    "postcode": "88785",
    "state": "Sabah"
  },
  {
    "postcode": "88786",
    "state": "Sabah"
  },
  {
    "postcode": "88787",
    "state": "Sabah"
  },
  {
    "postcode": "88788",
    "state": "Sabah"
  },
  {
    "postcode": "88789",
    "state": "Sabah"
  },
  {
    "postcode": "88790",
    "state": "Sabah"
  },
  {
    "postcode": "88800",
    "state": "Sabah"
  },
  {
    "postcode": "88801",
    "state": "Sabah"
  },
  {
    "postcode": "88802",
    "state": "Sabah"
  },
  {
    "postcode": "88803",
    "state": "Sabah"
  },
  {
    "postcode": "88804",
    "state": "Sabah"
  },
  {
    "postcode": "88805",
    "state": "Sabah"
  },
  {
    "postcode": "88806",
    "state": "Sabah"
  },
  {
    "postcode": "88807",
    "state": "Sabah"
  },
  {
    "postcode": "88808",
    "state": "Sabah"
  },
  {
    "postcode": "88809",
    "state": "Sabah"
  },
  {
    "postcode": "88810",
    "state": "Sabah"
  },
  {
    "postcode": "88811",
    "state": "Sabah"
  },
  {
    "postcode": "88812",
    "state": "Sabah"
  },
  {
    "postcode": "88813",
    "state": "Sabah"
  },
  {
    "postcode": "88814",
    "state": "Sabah"
  },
  {
    "postcode": "88815",
    "state": "Sabah"
  },
  {
    "postcode": "88816",
    "state": "Sabah"
  },
  {
    "postcode": "88817",
    "state": "Sabah"
  },
  {
    "postcode": "88818",
    "state": "Sabah"
  },
  {
    "postcode": "88819",
    "state": "Sabah"
  },
  {
    "postcode": "88820",
    "state": "Sabah"
  },
  {
    "postcode": "88821",
    "state": "Sabah"
  },
  {
    "postcode": "88822",
    "state": "Sabah"
  },
  {
    "postcode": "88823",
    "state": "Sabah"
  },
  {
    "postcode": "88824",
    "state": "Sabah"
  },
  {
    "postcode": "88825",
    "state": "Sabah"
  },
  {
    "postcode": "88826",
    "state": "Sabah"
  },
  {
    "postcode": "88827",
    "state": "Sabah"
  },
  {
    "postcode": "88828",
    "state": "Sabah"
  },
  {
    "postcode": "88829",
    "state": "Sabah"
  },
  {
    "postcode": "88830",
    "state": "Sabah"
  },
  {
    "postcode": "88831",
    "state": "Sabah"
  },
  {
    "postcode": "88832",
    "state": "Sabah"
  },
  {
    "postcode": "88833",
    "state": "Sabah"
  },
  {
    "postcode": "88834",
    "state": "Sabah"
  },
  {
    "postcode": "88835",
    "state": "Sabah"
  },
  {
    "postcode": "88836",
    "state": "Sabah"
  },
  {
    "postcode": "88837",
    "state": "Sabah"
  },
  {
    "postcode": "88838",
    "state": "Sabah"
  },
  {
    "postcode": "88839",
    "state": "Sabah"
  },
  {
    "postcode": "88840",
    "state": "Sabah"
  },
  {
    "postcode": "88841",
    "state": "Sabah"
  },
  {
    "postcode": "88842",
    "state": "Sabah"
  },
  {
    "postcode": "88843",
    "state": "Sabah"
  },
  {
    "postcode": "88844",
    "state": "Sabah"
  },
  {
    "postcode": "88845",
    "state": "Sabah"
  },
  {
    "postcode": "88846",
    "state": "Sabah"
  },
  {
    "postcode": "88847",
    "state": "Sabah"
  },
  {
    "postcode": "88848",
    "state": "Sabah"
  },
  {
    "postcode": "88849",
    "state": "Sabah"
  },
  {
    "postcode": "88850",
    "state": "Sabah"
  },
  {
    "postcode": "88851",
    "state": "Sabah"
  },
  {
    "postcode": "88852",
    "state": "Sabah"
  },
  {
    "postcode": "88853",
    "state": "Sabah"
  },
  {
    "postcode": "88854",
    "state": "Sabah"
  },
  {
    "postcode": "88855",
    "state": "Sabah"
  },
  {
    "postcode": "88856",
    "state": "Sabah"
  },
  {
    "postcode": "88857",
    "state": "Sabah"
  },
  {
    "postcode": "88858",
    "state": "Sabah"
  },
  {
    "postcode": "88860",
    "state": "Sabah"
  },
  {
    "postcode": "88861",
    "state": "Sabah"
  },
  {
    "postcode": "88862",
    "state": "Sabah"
  },
  {
    "postcode": "88863",
    "state": "Sabah"
  },
  {
    "postcode": "88865",
    "state": "Sabah"
  },
  {
    "postcode": "88866",
    "state": "Sabah"
  },
  {
    "postcode": "88867",
    "state": "Sabah"
  },
  {
    "postcode": "88868",
    "state": "Sabah"
  },
  {
    "postcode": "88869",
    "state": "Sabah"
  },
  {
    "postcode": "88870",
    "state": "Sabah"
  },
  {
    "postcode": "88871",
    "state": "Sabah"
  },
  {
    "postcode": "88872",
    "state": "Sabah"
  },
  {
    "postcode": "88873",
    "state": "Sabah"
  },
  {
    "postcode": "88874",
    "state": "Sabah"
  },
  {
    "postcode": "88875",
    "state": "Sabah"
  },
  {
    "postcode": "88900",
    "state": "Sabah"
  },
  {
    "postcode": "88901",
    "state": "Sabah"
  },
  {
    "postcode": "88902",
    "state": "Sabah"
  },
  {
    "postcode": "88903",
    "state": "Sabah"
  },
  {
    "postcode": "88904",
    "state": "Sabah"
  },
  {
    "postcode": "88905",
    "state": "Sabah"
  },
  {
    "postcode": "88906",
    "state": "Sabah"
  },
  {
    "postcode": "88988",
    "state": "Sabah"
  },
  {
    "postcode": "88990",
    "state": "Sabah"
  },
  {
    "postcode": "88991",
    "state": "Sabah"
  },
  {
    "postcode": "88992",
    "state": "Sabah"
  },
  {
    "postcode": "88993",
    "state": "Sabah"
  },
  {
    "postcode": "88994",
    "state": "Sabah"
  },
  {
    "postcode": "88995",
    "state": "Sabah"
  },
  {
    "postcode": "88996",
    "state": "Sabah"
  },
  {
    "postcode": "88997",
    "state": "Sabah"
  },
  {
    "postcode": "88998",
    "state": "Sabah"
  },
  {
    "postcode": "88999",
    "state": "Sabah"
  },
  {
    "postcode": "89000",
    "state": "Sabah"
  },
  {
    "postcode": "89007",
    "state": "Sabah"
  },
  {
    "postcode": "89008",
    "state": "Sabah"
  },
  {
    "postcode": "89009",
    "state": "Sabah"
  },
  {
    "postcode": "89050",
    "state": "Sabah"
  },
  {
    "postcode": "89057",
    "state": "Sabah"
  },
  {
    "postcode": "89058",
    "state": "Sabah"
  },
  {
    "postcode": "89059",
    "state": "Sabah"
  },
  {
    "postcode": "89100",
    "state": "Sabah"
  },
  {
    "postcode": "89107",
    "state": "Sabah"
  },
  {
    "postcode": "89108",
    "state": "Sabah"
  },
  {
    "postcode": "89109",
    "state": "Sabah"
  },
  {
    "postcode": "89150",
    "state": "Sabah"
  },
  {
    "postcode": "89157",
    "state": "Sabah"
  },
  {
    "postcode": "89158",
    "state": "Sabah"
  },
  {
    "postcode": "89159",
    "state": "Sabah"
  },
  {
    "postcode": "89200",
    "state": "Sabah"
  },
  {
    "postcode": "89207",
    "state": "Sabah"
  },
  {
    "postcode": "89208",
    "state": "Sabah"
  },
  {
    "postcode": "89209",
    "state": "Sabah"
  },
  {
    "postcode": "89250",
    "state": "Sabah"
  },
  {
    "postcode": "89257",
    "state": "Sabah"
  },
  {
    "postcode": "89258",
    "state": "Sabah"
  },
  {
    "postcode": "89259",
    "state": "Sabah"
  },
  {
    "postcode": "89260",
    "state": "Sabah"
  },
  {
    "postcode": "89300",
    "state": "Sabah"
  },
  {
    "postcode": "89307",
    "state": "Sabah"
  },
  {
    "postcode": "89308",
    "state": "Sabah"
  },
  {
    "postcode": "89309",
    "state": "Sabah"
  },
  {
    "postcode": "89500",
    "state": "Sabah"
  },
  {
    "postcode": "89507",
    "state": "Sabah"
  },
  {
    "postcode": "89508",
    "state": "Sabah"
  },
  {
    "postcode": "89509",
    "state": "Sabah"
  },
  {
    "postcode": "89600",
    "state": "Sabah"
  },
  {
    "postcode": "89607",
    "state": "Sabah"
  },
  {
    "postcode": "89608",
    "state": "Sabah"
  },
  {
    "postcode": "89609",
    "state": "Sabah"
  },
  {
    "postcode": "89650",
    "state": "Sabah"
  },
  {
    "postcode": "89657",
    "state": "Sabah"
  },
  {
    "postcode": "89658",
    "state": "Sabah"
  },
  {
    "postcode": "89659",
    "state": "Sabah"
  },
  {
    "postcode": "89700",
    "state": "Sabah"
  },
  {
    "postcode": "89707",
    "state": "Sabah"
  },
  {
    "postcode": "89708",
    "state": "Sabah"
  },
  {
    "postcode": "89709",
    "state": "Sabah"
  },
  {
    "postcode": "89720",
    "state": "Sabah"
  },
  {
    "postcode": "89727",
    "state": "Sabah"
  },
  {
    "postcode": "89728",
    "state": "Sabah"
  },
  {
    "postcode": "89729",
    "state": "Sabah"
  },
  {
    "postcode": "89740",
    "state": "Sabah"
  },
  {
    "postcode": "89747",
    "state": "Sabah"
  },
  {
    "postcode": "89748",
    "state": "Sabah"
  },
  {
    "postcode": "89749",
    "state": "Sabah"
  },
  {
    "postcode": "89760",
    "state": "Sabah"
  },
  {
    "postcode": "89767",
    "state": "Sabah"
  },
  {
    "postcode": "89768",
    "state": "Sabah"
  },
  {
    "postcode": "89769",
    "state": "Sabah"
  },
  {
    "postcode": "89800",
    "state": "Sabah"
  },
  {
    "postcode": "89807",
    "state": "Sabah"
  },
  {
    "postcode": "89808",
    "state": "Sabah"
  },
  {
    "postcode": "89809",
    "state": "Sabah"
  },
  {
    "postcode": "89850",
    "state": "Sabah"
  },
  {
    "postcode": "89857",
    "state": "Sabah"
  },
  {
    "postcode": "89858",
    "state": "Sabah"
  },
  {
    "postcode": "89859",
    "state": "Sabah"
  },
  {
    "postcode": "89900",
    "state": "Sabah"
  },
  {
    "postcode": "89907",
    "state": "Sabah"
  },
  {
    "postcode": "89908",
    "state": "Sabah"
  },
  {
    "postcode": "89909",
    "state": "Sabah"
  },
  {
    "postcode": "89950",
    "state": "Sabah"
  },
  {
    "postcode": "89957",
    "state": "Sabah"
  },
  {
    "postcode": "89958",
    "state": "Sabah"
  },
  {
    "postcode": "89959",
    "state": "Sabah"
  },
  {
    "postcode": "90000",
    "state": "Sabah"
  },
  {
    "postcode": "90009",
    "state": "Sabah"
  },
  {
    "postcode": "90100",
    "state": "Sabah"
  },
  {
    "postcode": "90107",
    "state": "Sabah"
  },
  {
    "postcode": "90109",
    "state": "Sabah"
  },
  {
    "postcode": "90200",
    "state": "Sabah"
  },
  {
    "postcode": "90300",
    "state": "Sabah"
  },
  {
    "postcode": "90307",
    "state": "Sabah"
  },
  {
    "postcode": "90400",
    "state": "Sabah"
  },
  {
    "postcode": "90700",
    "state": "Sabah"
  },
  {
    "postcode": "90701",
    "state": "Sabah"
  },
  {
    "postcode": "90702",
    "state": "Sabah"
  },
  {
    "postcode": "90703",
    "state": "Sabah"
  },
  {
    "postcode": "90704",
    "state": "Sabah"
  },
  {
    "postcode": "90705",
    "state": "Sabah"
  },
  {
    "postcode": "90706",
    "state": "Sabah"
  },
  {
    "postcode": "90707",
    "state": "Sabah"
  },
  {
    "postcode": "90708",
    "state": "Sabah"
  },
  {
    "postcode": "90709",
    "state": "Sabah"
  },
  {
    "postcode": "90711",
    "state": "Sabah"
  },
  {
    "postcode": "90712",
    "state": "Sabah"
  },
  {
    "postcode": "90713",
    "state": "Sabah"
  },
  {
    "postcode": "90714",
    "state": "Sabah"
  },
  {
    "postcode": "90715",
    "state": "Sabah"
  },
  {
    "postcode": "90716",
    "state": "Sabah"
  },
  {
    "postcode": "90717",
    "state": "Sabah"
  },
  {
    "postcode": "90718",
    "state": "Sabah"
  },
  {
    "postcode": "90719",
    "state": "Sabah"
  },
  {
    "postcode": "90720",
    "state": "Sabah"
  },
  {
    "postcode": "90721",
    "state": "Sabah"
  },
  {
    "postcode": "90722",
    "state": "Sabah"
  },
  {
    "postcode": "90723",
    "state": "Sabah"
  },
  {
    "postcode": "90724",
    "state": "Sabah"
  },
  {
    "postcode": "90725",
    "state": "Sabah"
  },
  {
    "postcode": "90726",
    "state": "Sabah"
  },
  {
    "postcode": "90727",
    "state": "Sabah"
  },
  {
    "postcode": "90728",
    "state": "Sabah"
  },
  {
    "postcode": "90729",
    "state": "Sabah"
  },
  {
    "postcode": "90730",
    "state": "Sabah"
  },
  {
    "postcode": "90731",
    "state": "Sabah"
  },
  {
    "postcode": "90732",
    "state": "Sabah"
  },
  {
    "postcode": "90733",
    "state": "Sabah"
  },
  {
    "postcode": "90734",
    "state": "Sabah"
  },
  {
    "postcode": "90735",
    "state": "Sabah"
  },
  {
    "postcode": "90736",
    "state": "Sabah"
  },
  {
    "postcode": "90737",
    "state": "Sabah"
  },
  {
    "postcode": "90738",
    "state": "Sabah"
  },
  {
    "postcode": "90739",
    "state": "Sabah"
  },
  {
    "postcode": "90740",
    "state": "Sabah"
  },
  {
    "postcode": "90741",
    "state": "Sabah"
  },
  {
    "postcode": "91000",
    "state": "Sabah"
  },
  {
    "postcode": "91007",
    "state": "Sabah"
  },
  {
    "postcode": "91008",
    "state": "Sabah"
  },
  {
    "postcode": "91009",
    "state": "Sabah"
  },
  {
    "postcode": "91010",
    "state": "Sabah"
  },
  {
    "postcode": "91011",
    "state": "Sabah"
  },
  {
    "postcode": "91012",
    "state": "Sabah"
  },
  {
    "postcode": "91013",
    "state": "Sabah"
  },
  {
    "postcode": "91014",
    "state": "Sabah"
  },
  {
    "postcode": "91015",
    "state": "Sabah"
  },
  {
    "postcode": "91016",
    "state": "Sabah"
  },
  {
    "postcode": "91017",
    "state": "Sabah"
  },
  {
    "postcode": "91018",
    "state": "Sabah"
  },
  {
    "postcode": "91019",
    "state": "Sabah"
  },
  {
    "postcode": "91020",
    "state": "Sabah"
  },
  {
    "postcode": "91021",
    "state": "Sabah"
  },
  {
    "postcode": "91022",
    "state": "Sabah"
  },
  {
    "postcode": "91023",
    "state": "Sabah"
  },
  {
    "postcode": "91024",
    "state": "Sabah"
  },
  {
    "postcode": "91025",
    "state": "Sabah"
  },
  {
    "postcode": "91026",
    "state": "Sabah"
  },
  {
    "postcode": "91027",
    "state": "Sabah"
  },
  {
    "postcode": "91028",
    "state": "Sabah"
  },
  {
    "postcode": "91029",
    "state": "Sabah"
  },
  {
    "postcode": "91030",
    "state": "Sabah"
  },
  {
    "postcode": "91031",
    "state": "Sabah"
  },
  {
    "postcode": "91032",
    "state": "Sabah"
  },
  {
    "postcode": "91033",
    "state": "Sabah"
  },
  {
    "postcode": "91034",
    "state": "Sabah"
  },
  {
    "postcode": "91035",
    "state": "Sabah"
  },
  {
    "postcode": "91100",
    "state": "Sabah"
  },
  {
    "postcode": "91109",
    "state": "Sabah"
  },
  {
    "postcode": "91110",
    "state": "Sabah"
  },
  {
    "postcode": "91111",
    "state": "Sabah"
  },
  {
    "postcode": "91112",
    "state": "Sabah"
  },
  {
    "postcode": "91113",
    "state": "Sabah"
  },
  {
    "postcode": "91114",
    "state": "Sabah"
  },
  {
    "postcode": "91115",
    "state": "Sabah"
  },
  {
    "postcode": "91116",
    "state": "Sabah"
  },
  {
    "postcode": "91117",
    "state": "Sabah"
  },
  {
    "postcode": "91118",
    "state": "Sabah"
  },
  {
    "postcode": "91119",
    "state": "Sabah"
  },
  {
    "postcode": "91120",
    "state": "Sabah"
  },
  {
    "postcode": "91121",
    "state": "Sabah"
  },
  {
    "postcode": "91122",
    "state": "Sabah"
  },
  {
    "postcode": "91123",
    "state": "Sabah"
  },
  {
    "postcode": "91124",
    "state": "Sabah"
  },
  {
    "postcode": "91125",
    "state": "Sabah"
  },
  {
    "postcode": "91126",
    "state": "Sabah"
  },
  {
    "postcode": "91127",
    "state": "Sabah"
  },
  {
    "postcode": "91128",
    "state": "Sabah"
  },
  {
    "postcode": "91150",
    "state": "Sabah"
  },
  {
    "postcode": "91200",
    "state": "Sabah"
  },
  {
    "postcode": "91207",
    "state": "Sabah"
  },
  {
    "postcode": "91209",
    "state": "Sabah"
  },
  {
    "postcode": "91300",
    "state": "Sabah"
  },
  {
    "postcode": "91307",
    "state": "Sabah"
  },
  {
    "postcode": "91308",
    "state": "Sabah"
  },
  {
    "postcode": "91309",
    "state": "Sabah"
  },
  {
    "postcode": "93000",
    "state": "Sarawak"
  },
  {
    "postcode": "93010",
    "state": "Sarawak"
  },
  {
    "postcode": "93050",
    "state": "Sarawak"
  },
  {
    "postcode": "93100",
    "state": "Sarawak"
  },
  {
    "postcode": "93150",
    "state": "Sarawak"
  },
  {
    "postcode": "93200",
    "state": "Sarawak"
  },
  {
    "postcode": "93250",
    "state": "Sarawak"
  },
  {
    "postcode": "93300",
    "state": "Sarawak"
  },
  {
    "postcode": "93350",
    "state": "Sarawak"
  },
  {
    "postcode": "93400",
    "state": "Sarawak"
  },
  {
    "postcode": "93450",
    "state": "Sarawak"
  },
  {
    "postcode": "93500",
    "state": "Sarawak"
  },
  {
    "postcode": "93502",
    "state": "Sarawak"
  },
  {
    "postcode": "93503",
    "state": "Sarawak"
  },
  {
    "postcode": "93504",
    "state": "Sarawak"
  },
  {
    "postcode": "93505",
    "state": "Sarawak"
  },
  {
    "postcode": "93506",
    "state": "Sarawak"
  },
  {
    "postcode": "93507",
    "state": "Sarawak"
  },
  {
    "postcode": "93508",
    "state": "Sarawak"
  },
  {
    "postcode": "93514",
    "state": "Sarawak"
  },
  {
    "postcode": "93516",
    "state": "Sarawak"
  },
  {
    "postcode": "93517",
    "state": "Sarawak"
  },
  {
    "postcode": "93518",
    "state": "Sarawak"
  },
  {
    "postcode": "93519",
    "state": "Sarawak"
  },
  {
    "postcode": "93520",
    "state": "Sarawak"
  },
  {
    "postcode": "93527",
    "state": "Sarawak"
  },
  {
    "postcode": "93529",
    "state": "Sarawak"
  },
  {
    "postcode": "93532",
    "state": "Sarawak"
  },
  {
    "postcode": "93540",
    "state": "Sarawak"
  },
  {
    "postcode": "93550",
    "state": "Sarawak"
  },
  {
    "postcode": "93551",
    "state": "Sarawak"
  },
  {
    "postcode": "93552",
    "state": "Sarawak"
  },
  {
    "postcode": "93554",
    "state": "Sarawak"
  },
  {
    "postcode": "93556",
    "state": "Sarawak"
  },
  {
    "postcode": "93558",
    "state": "Sarawak"
  },
  {
    "postcode": "93560",
    "state": "Sarawak"
  },
  {
    "postcode": "93564",
    "state": "Sarawak"
  },
  {
    "postcode": "93566",
    "state": "Sarawak"
  },
  {
    "postcode": "93570",
    "state": "Sarawak"
  },
  {
    "postcode": "93572",
    "state": "Sarawak"
  },
  {
    "postcode": "93576",
    "state": "Sarawak"
  },
  {
    "postcode": "93578",
    "state": "Sarawak"
  },
  {
    "postcode": "93582",
    "state": "Sarawak"
  },
  {
    "postcode": "93586",
    "state": "Sarawak"
  },
  {
    "postcode": "93590",
    "state": "Sarawak"
  },
  {
    "postcode": "93592",
    "state": "Sarawak"
  },
  {
    "postcode": "93594",
    "state": "Sarawak"
  },
  {
    "postcode": "93596",
    "state": "Sarawak"
  },
  {
    "postcode": "93600",
    "state": "Sarawak"
  },
  {
    "postcode": "93604",
    "state": "Sarawak"
  },
  {
    "postcode": "93606",
    "state": "Sarawak"
  },
  {
    "postcode": "93608",
    "state": "Sarawak"
  },
  {
    "postcode": "93609",
    "state": "Sarawak"
  },
  {
    "postcode": "93610",
    "state": "Sarawak"
  },
  {
    "postcode": "93612",
    "state": "Sarawak"
  },
  {
    "postcode": "93614",
    "state": "Sarawak"
  },
  {
    "postcode": "93618",
    "state": "Sarawak"
  },
  {
    "postcode": "93619",
    "state": "Sarawak"
  },
  {
    "postcode": "93620",
    "state": "Sarawak"
  },
  {
    "postcode": "93626",
    "state": "Sarawak"
  },
  {
    "postcode": "93628",
    "state": "Sarawak"
  },
  {
    "postcode": "93632",
    "state": "Sarawak"
  },
  {
    "postcode": "93634",
    "state": "Sarawak"
  },
  {
    "postcode": "93648",
    "state": "Sarawak"
  },
  {
    "postcode": "93658",
    "state": "Sarawak"
  },
  {
    "postcode": "93660",
    "state": "Sarawak"
  },
  {
    "postcode": "93661",
    "state": "Sarawak"
  },
  {
    "postcode": "93662",
    "state": "Sarawak"
  },
  {
    "postcode": "93670",
    "state": "Sarawak"
  },
  {
    "postcode": "93672",
    "state": "Sarawak"
  },
  {
    "postcode": "93677",
    "state": "Sarawak"
  },
  {
    "postcode": "93690",
    "state": "Sarawak"
  },
  {
    "postcode": "93694",
    "state": "Sarawak"
  },
  {
    "postcode": "93700",
    "state": "Sarawak"
  },
  {
    "postcode": "93702",
    "state": "Sarawak"
  },
  {
    "postcode": "93704",
    "state": "Sarawak"
  },
  {
    "postcode": "93706",
    "state": "Sarawak"
  },
  {
    "postcode": "93708",
    "state": "Sarawak"
  },
  {
    "postcode": "93710",
    "state": "Sarawak"
  },
  {
    "postcode": "93712",
    "state": "Sarawak"
  },
  {
    "postcode": "93714",
    "state": "Sarawak"
  },
  {
    "postcode": "93716",
    "state": "Sarawak"
  },
  {
    "postcode": "93718",
    "state": "Sarawak"
  },
  {
    "postcode": "93720",
    "state": "Sarawak"
  },
  {
    "postcode": "93722",
    "state": "Sarawak"
  },
  {
    "postcode": "93724",
    "state": "Sarawak"
  },
  {
    "postcode": "93726",
    "state": "Sarawak"
  },
  {
    "postcode": "93728",
    "state": "Sarawak"
  },
  {
    "postcode": "93730",
    "state": "Sarawak"
  },
  {
    "postcode": "93732",
    "state": "Sarawak"
  },
  {
    "postcode": "93734",
    "state": "Sarawak"
  },
  {
    "postcode": "93736",
    "state": "Sarawak"
  },
  {
    "postcode": "93738",
    "state": "Sarawak"
  },
  {
    "postcode": "93740",
    "state": "Sarawak"
  },
  {
    "postcode": "93742",
    "state": "Sarawak"
  },
  {
    "postcode": "93744",
    "state": "Sarawak"
  },
  {
    "postcode": "93746",
    "state": "Sarawak"
  },
  {
    "postcode": "93748",
    "state": "Sarawak"
  },
  {
    "postcode": "93750",
    "state": "Sarawak"
  },
  {
    "postcode": "93752",
    "state": "Sarawak"
  },
  {
    "postcode": "93754",
    "state": "Sarawak"
  },
  {
    "postcode": "93756",
    "state": "Sarawak"
  },
  {
    "postcode": "93758",
    "state": "Sarawak"
  },
  {
    "postcode": "93760",
    "state": "Sarawak"
  },
  {
    "postcode": "93762",
    "state": "Sarawak"
  },
  {
    "postcode": "93764",
    "state": "Sarawak"
  },
  {
    "postcode": "93900",
    "state": "Sarawak"
  },
  {
    "postcode": "93902",
    "state": "Sarawak"
  },
  {
    "postcode": "93904",
    "state": "Sarawak"
  },
  {
    "postcode": "93906",
    "state": "Sarawak"
  },
  {
    "postcode": "93908",
    "state": "Sarawak"
  },
  {
    "postcode": "93910",
    "state": "Sarawak"
  },
  {
    "postcode": "93912",
    "state": "Sarawak"
  },
  {
    "postcode": "93914",
    "state": "Sarawak"
  },
  {
    "postcode": "93916",
    "state": "Sarawak"
  },
  {
    "postcode": "93990",
    "state": "Sarawak"
  },
  {
    "postcode": "94000",
    "state": "Sarawak"
  },
  {
    "postcode": "94007",
    "state": "Sarawak"
  },
  {
    "postcode": "94009",
    "state": "Sarawak"
  },
  {
    "postcode": "94200",
    "state": "Sarawak"
  },
  {
    "postcode": "94300",
    "state": "Sarawak"
  },
  {
    "postcode": "94500",
    "state": "Sarawak"
  },
  {
    "postcode": "94507",
    "state": "Sarawak"
  },
  {
    "postcode": "94509",
    "state": "Sarawak"
  },
  {
    "postcode": "94600",
    "state": "Sarawak"
  },
  {
    "postcode": "94650",
    "state": "Sarawak"
  },
  {
    "postcode": "94700",
    "state": "Sarawak"
  },
  {
    "postcode": "94707",
    "state": "Sarawak"
  },
  {
    "postcode": "94709",
    "state": "Sarawak"
  },
  {
    "postcode": "94750",
    "state": "Sarawak"
  },
  {
    "postcode": "94760",
    "state": "Sarawak"
  },
  {
    "postcode": "94800",
    "state": "Sarawak"
  },
  {
    "postcode": "94807",
    "state": "Sarawak"
  },
  {
    "postcode": "94809",
    "state": "Sarawak"
  },
  {
    "postcode": "94850",
    "state": "Sarawak"
  },
  {
    "postcode": "94900",
    "state": "Sarawak"
  },
  {
    "postcode": "94950",
    "state": "Sarawak"
  },
  {
    "postcode": "95000",
    "state": "Sarawak"
  },
  {
    "postcode": "95007",
    "state": "Sarawak"
  },
  {
    "postcode": "95008",
    "state": "Sarawak"
  },
  {
    "postcode": "95009",
    "state": "Sarawak"
  },
  {
    "postcode": "95300",
    "state": "Sarawak"
  },
  {
    "postcode": "95400",
    "state": "Sarawak"
  },
  {
    "postcode": "95407",
    "state": "Sarawak"
  },
  {
    "postcode": "95409",
    "state": "Sarawak"
  },
  {
    "postcode": "95500",
    "state": "Sarawak"
  },
  {
    "postcode": "95600",
    "state": "Sarawak"
  },
  {
    "postcode": "95700",
    "state": "Sarawak"
  },
  {
    "postcode": "95707",
    "state": "Sarawak"
  },
  {
    "postcode": "95709",
    "state": "Sarawak"
  },
  {
    "postcode": "95800",
    "state": "Sarawak"
  },
  {
    "postcode": "95900",
    "state": "Sarawak"
  },
  {
    "postcode": "96000",
    "state": "Sarawak"
  },
  {
    "postcode": "96007",
    "state": "Sarawak"
  },
  {
    "postcode": "96008",
    "state": "Sarawak"
  },
  {
    "postcode": "96009",
    "state": "Sarawak"
  },
  {
    "postcode": "96100",
    "state": "Sarawak"
  },
  {
    "postcode": "96107",
    "state": "Sarawak"
  },
  {
    "postcode": "96108",
    "state": "Sarawak"
  },
  {
    "postcode": "96109",
    "state": "Sarawak"
  },
  {
    "postcode": "96150",
    "state": "Sarawak"
  },
  {
    "postcode": "96200",
    "state": "Sarawak"
  },
  {
    "postcode": "96250",
    "state": "Sarawak"
  },
  {
    "postcode": "96300",
    "state": "Sarawak"
  },
  {
    "postcode": "96307",
    "state": "Sarawak"
  },
  {
    "postcode": "96309",
    "state": "Sarawak"
  },
  {
    "postcode": "96350",
    "state": "Sarawak"
  },
  {
    "postcode": "96400",
    "state": "Sarawak"
  },
  {
    "postcode": "96410",
    "state": "Sarawak"
  },
  {
    "postcode": "96500",
    "state": "Sarawak"
  },
  {
    "postcode": "96507",
    "state": "Sarawak"
  },
  {
    "postcode": "96508",
    "state": "Sarawak"
  },
  {
    "postcode": "96509",
    "state": "Sarawak"
  },
  {
    "postcode": "96600",
    "state": "Sarawak"
  },
  {
    "postcode": "96700",
    "state": "Sarawak"
  },
  {
    "postcode": "96707",
    "state": "Sarawak"
  },
  {
    "postcode": "96709",
    "state": "Sarawak"
  },
  {
    "postcode": "96800",
    "state": "Sarawak"
  },
  {
    "postcode": "96807",
    "state": "Sarawak"
  },
  {
    "postcode": "96809",
    "state": "Sarawak"
  },
  {
    "postcode": "96850",
    "state": "Sarawak"
  },
  {
    "postcode": "96900",
    "state": "Sarawak"
  },
  {
    "postcode": "97000",
    "state": "Sarawak"
  },
  {
    "postcode": "97007",
    "state": "Sarawak"
  },
  {
    "postcode": "97008",
    "state": "Sarawak"
  },
  {
    "postcode": "97009",
    "state": "Sarawak"
  },
  {
    "postcode": "97010",
    "state": "Sarawak"
  },
  {
    "postcode": "97011",
    "state": "Sarawak"
  },
  {
    "postcode": "97012",
    "state": "Sarawak"
  },
  {
    "postcode": "97013",
    "state": "Sarawak"
  },
  {
    "postcode": "97014",
    "state": "Sarawak"
  },
  {
    "postcode": "97015",
    "state": "Sarawak"
  },
  {
    "postcode": "97100",
    "state": "Sarawak"
  },
  {
    "postcode": "97200",
    "state": "Sarawak"
  },
  {
    "postcode": "97300",
    "state": "Sarawak"
  },
  {
    "postcode": "98000",
    "state": "Sarawak"
  },
  {
    "postcode": "98007",
    "state": "Sarawak"
  },
  {
    "postcode": "98008",
    "state": "Sarawak"
  },
  {
    "postcode": "98009",
    "state": "Sarawak"
  },
  {
    "postcode": "98050",
    "state": "Sarawak"
  },
  {
    "postcode": "98057",
    "state": "Sarawak"
  },
  {
    "postcode": "98058",
    "state": "Sarawak"
  },
  {
    "postcode": "98059",
    "state": "Sarawak"
  },
  {
    "postcode": "98100",
    "state": "Sarawak"
  },
  {
    "postcode": "98107",
    "state": "Sarawak"
  },
  {
    "postcode": "98109",
    "state": "Sarawak"
  },
  {
    "postcode": "98150",
    "state": "Sarawak"
  },
  {
    "postcode": "98157",
    "state": "Sarawak"
  },
  {
    "postcode": "98159",
    "state": "Sarawak"
  },
  {
    "postcode": "98200",
    "state": "Sarawak"
  },
  {
    "postcode": "98300",
    "state": "Sarawak"
  },
  {
    "postcode": "98700",
    "state": "Sarawak"
  },
  {
    "postcode": "98707",
    "state": "Sarawak"
  },
  {
    "postcode": "98708",
    "state": "Sarawak"
  },
  {
    "postcode": "98709",
    "state": "Sarawak"
  },
  {
    "postcode": "98750",
    "state": "Sarawak"
  },
  {
    "postcode": "98800",
    "state": "Sarawak"
  },
  {
    "postcode": "98850",
    "state": "Sarawak"
  },
  {
    "postcode": "98857",
    "state": "Sarawak"
  },
  {
    "postcode": "98859",
    "state": "Sarawak"
  }
]
